{"type":"FeatureCollection","name":"crous_regions_optimised","attribution":"Données © CROUStillant (https://croustillant.menu)","features":[{"type":"Feature","properties":{"crous_id":26,"crous_slug":"aix-marseille-avignon","crous_libelle":"Aix-Marseille","crous_nom":"Aix Marseille Avignon","departements":["04","05","13","84"],"credit":"croustillant.menu"},"geometry":{"type":"MultiPolygon","coordinates":[[[[5.672,43.179],[5.684,43.236],[5.761,43.267],[5.727,43.317],[5.686,43.34],[5.696,43.407],[5.75,43.402],[5.751,43.435],[5.699,43.485],[5.715,43.551],[5.681,43.611],[5.702,43.64],[5.798,43.661],[5.804,43.68],[5.754,43.725],[5.781,43.756],[5.833,43.746],[5.855,43.723],[5.94,43.727],[6.035,43.694],[6.078,43.711],[6.109,43.746],[6.169,43.751],[6.209,43.797],[6.263,43.782],[6.326,43.747],[6.384,43.734],[6.424,43.79],[6.525,43.806],[6.547,43.783],[6.587,43.805],[6.642,43.795],[6.694,43.877],[6.748,43.872],[6.799,43.91],[6.853,43.915],[6.885,43.889],[6.943,43.903],[6.913,43.928],[6.848,43.954],[6.838,43.989],[6.746,44.043],[6.755,44.079],[6.708,44.124],[6.688,44.169],[6.716,44.205],[6.724,44.25],[6.787,44.273],[6.796,44.316],[6.887,44.361],[6.893,44.42],[6.936,44.44],[6.876,44.482],[6.858,44.534],[6.932,44.573],[6.962,44.627],[6.948,44.654],[6.987,44.69],[7.077,44.681],[7.042,44.719],[7,44.789],[7.007,44.839],[6.931,44.864],[6.863,44.851],[6.803,44.878],[6.749,44.922],[6.763,44.971],[6.743,45.016],[6.674,45.02],[6.662,45.072],[6.63,45.109],[6.577,45.123],[6.48,45.091],[6.486,45.056],[6.396,45.061],[6.338,45.121],[6.229,45.108],[6.204,45.012],[6.252,44.997],[6.306,45.005],[6.323,44.953],[6.359,44.941],[6.354,44.853],[6.304,44.873],[6.25,44.852],[6.133,44.865],[6.067,44.821],[6.03,44.838],[5.95,44.805],[5.98,44.781],[5.919,44.751],[5.851,44.751],[5.804,44.706],[5.826,44.686],[5.791,44.653],[5.757,44.661],[5.721,44.64],[5.652,44.655],[5.646,44.609],[5.597,44.543],[5.627,44.535],[5.603,44.465],[5.516,44.492],[5.48,44.491],[5.464,44.448],[5.434,44.433],[5.438,44.367],[5.494,44.338],[5.618,44.332],[5.648,44.272],[5.676,44.276],[5.685,44.193],[5.64,44.168],[5.576,44.188],[5.541,44.133],[5.495,44.115],[5.451,44.122],[5.438,44.149],[5.383,44.16],[5.385,44.201],[5.337,44.204],[5.252,44.231],[5.238,44.213],[5.149,44.235],[5.174,44.308],[5.104,44.28],[5.061,44.308],[4.922,44.26],[4.879,44.261],[4.814,44.232],[4.805,44.293],[4.78,44.319],[4.651,44.33],[4.649,44.27],[4.722,44.187],[4.707,44.104],[4.755,44.088],[4.843,44.01],[4.815,43.968],[4.75,43.932],[4.692,43.884],[4.642,43.867],[4.651,43.782],[4.593,43.687],[4.537,43.708],[4.487,43.699],[4.427,43.621],[4.401,43.56],[4.296,43.515],[4.24,43.499],[4.23,43.46],[4.388,43.451],[4.465,43.457],[4.547,43.449],[4.582,43.431],[4.586,43.36],[4.659,43.346],[4.759,43.35],[4.839,43.329],[4.873,43.361],[4.867,43.405],[4.931,43.433],[4.968,43.426],[5.024,43.339],[5.064,43.331],[5.224,43.328],[5.308,43.361],[5.359,43.326],[5.345,43.282],[5.375,43.248],[5.369,43.207],[5.457,43.211],[5.5,43.197],[5.53,43.211],[5.599,43.164],[5.624,43.187],[5.672,43.179]],[[5.114,43.523],[5.146,43.458],[5.206,43.492],[5.227,43.453],[5.137,43.4],[5.058,43.408],[5.052,43.464],[5.006,43.47],[5.014,43.524],[5.114,43.523]]],[[[4.902,44.371],[4.873,44.35],[4.891,44.306],[4.98,44.297],[5.023,44.346],[5.072,44.377],[5.016,44.393],[4.989,44.423],[4.919,44.408],[4.902,44.371]]]]}},{"type":"Feature","properties":{"crous_id":7,"crous_slug":"amiens-picardie","crous_libelle":"Amiens","crous_nom":"Amiens Picardie","departements":["02","60","80"],"credit":"croustillant.menu"},"geometry":{"type":"Polygon","coordinates":[[[2.591,49.08],[2.631,49.102],[2.705,49.065],[2.754,49.061],[2.809,49.098],[2.87,49.07],[2.902,49.085],[3.03,49.086],[3.068,49.114],[3.165,49.1],[3.189,49.046],[3.161,49.024],[3.305,48.949],[3.33,48.909],[3.446,48.86],[3.485,48.852],[3.529,48.912],[3.621,48.966],[3.664,49.037],[3.588,49.034],[3.588,49.059],[3.639,49.081],[3.612,49.118],[3.622,49.151],[3.749,49.157],[3.704,49.181],[3.655,49.263],[3.644,49.313],[3.802,49.359],[3.853,49.345],[3.87,49.407],[3.931,49.401],[3.961,49.377],[4.036,49.36],[4.041,49.509],[4.077,49.525],[4.059,49.593],[4.025,49.623],[4.126,49.651],[4.127,49.678],[4.179,49.698],[4.247,49.755],[4.214,49.806],[4.249,49.857],[4.256,49.903],[4.217,49.914],[4.233,49.958],[4.141,49.979],[4.084,49.969],[4.012,49.985],[3.954,50.03],[3.895,50.016],[3.836,50.048],[3.747,50.053],[3.715,50.069],[3.614,50.025],[3.562,50.054],[3.491,50.019],[3.352,50.036],[3.286,50.014],[3.231,50.031],[3.174,50.012],[3.098,50.046],[3.015,50.058],[2.879,50.03],[2.848,50.078],[2.763,50.038],[2.777,50.116],[2.73,50.126],[2.691,50.093],[2.552,50.143],[2.455,50.131],[2.43,50.088],[2.375,50.109],[2.391,50.156],[2.496,50.195],[2.452,50.226],[2.36,50.215],[2.246,50.211],[2.213,50.218],[2.16,50.195],[2.084,50.206],[2.063,50.256],[2.011,50.267],[1.883,50.318],[1.805,50.36],[1.762,50.362],[1.674,50.334],[1.642,50.352],[1.551,50.35],[1.538,50.283],[1.592,50.256],[1.623,50.214],[1.663,50.214],[1.684,50.183],[1.596,50.186],[1.548,50.215],[1.479,50.165],[1.455,50.111],[1.382,50.066],[1.449,50.069],[1.455,50.038],[1.518,50.01],[1.595,49.949],[1.678,49.918],[1.712,49.874],[1.737,49.808],[1.785,49.758],[1.739,49.749],[1.715,49.709],[1.721,49.625],[1.701,49.599],[1.748,49.538],[1.716,49.506],[1.776,49.471],[1.723,49.435],[1.714,49.407],[1.761,49.366],[1.767,49.32],[1.803,49.272],[1.79,49.254],[1.709,49.264],[1.704,49.232],[1.73,49.229],[1.756,49.175],[1.795,49.185],[1.883,49.162],[1.973,49.184],[2.002,49.176],[2.072,49.204],[2.113,49.187],[2.22,49.18],[2.254,49.153],[2.313,49.186],[2.346,49.162],[2.472,49.135],[2.531,49.1],[2.591,49.08]]]}},{"type":"Feature","properties":{"crous_id":8,"crous_slug":"antilles-guyane","crous_libelle":"Antilles-Guyane","crous_nom":"Antilles Guyane","departements":["971","972","973"],"credit":"croustillant.menu"},"geometry":{"type":"MultiPolygon","coordinates":[[[[-61.649,15.848],[-61.633,15.84],[-61.622,15.854],[-61.626,15.867],[-61.635,15.868],[-61.645,15.86],[-61.649,15.848]]],[[[-61.804,16.276],[-61.806,16.259],[-61.801,16.244],[-61.785,16.224],[-61.783,16.208],[-61.788,16.195],[-61.782,16.188],[-61.783,16.174],[-61.776,16.171],[-61.775,16.149],[-61.771,16.136],[-61.774,16.122],[-61.773,16.106],[-61.767,16.084],[-61.77,16.063],[-61.765,16.049],[-61.755,16.04],[-61.749,16.03],[-61.747,16.011],[-61.711,15.974],[-61.707,15.948],[-61.7,15.947],[-61.676,15.953],[-61.669,15.962],[-61.659,15.96],[-61.649,15.97],[-61.635,15.966],[-61.621,15.973],[-61.614,15.989],[-61.604,15.995],[-61.58,16.019],[-61.573,16.022],[-61.565,16.034],[-61.564,16.042],[-61.556,16.051],[-61.561,16.063],[-61.559,16.093],[-61.57,16.114],[-61.57,16.121],[-61.561,16.128],[-61.573,16.137],[-61.575,16.154],[-61.581,16.155],[-61.585,16.168],[-61.58,16.173],[-61.59,16.193],[-61.583,16.205],[-61.588,16.218],[-61.584,16.233],[-61.567,16.236],[-61.556,16.233],[-61.548,16.223],[-61.543,16.233],[-61.553,16.25],[-61.547,16.256],[-61.549,16.278],[-61.561,16.276],[-61.559,16.286],[-61.579,16.279],[-61.585,16.27],[-61.599,16.266],[-61.614,16.268],[-61.609,16.304],[-61.623,16.301],[-61.633,16.305],[-61.641,16.316],[-61.652,16.321],[-61.669,16.317],[-61.673,16.325],[-61.694,16.335],[-61.709,16.336],[-61.728,16.356],[-61.743,16.362],[-61.75,16.354],[-61.759,16.356],[-61.778,16.346],[-61.787,16.336],[-61.787,16.325],[-61.8,16.317],[-61.795,16.308],[-61.802,16.301],[-61.804,16.276]]],[[[-61.525,16.217],[-61.508,16.215],[-61.508,16.207],[-61.487,16.205],[-61.465,16.197],[-61.451,16.2],[-61.438,16.209],[-61.41,16.212],[-61.39,16.224],[-61.379,16.222],[-61.37,16.232],[-61.348,16.237],[-61.339,16.242],[-61.319,16.24],[-61.289,16.245],[-61.281,16.25],[-61.266,16.25],[-61.256,16.256],[-61.219,16.253],[-61.22,16.264],[-61.243,16.273],[-61.259,16.304],[-61.267,16.307],[-61.287,16.322],[-61.305,16.325],[-61.313,16.332],[-61.352,16.334],[-61.376,16.341],[-61.387,16.354],[-61.402,16.375],[-61.405,16.385],[-61.405,16.407],[-61.398,16.418],[-61.398,16.43],[-61.406,16.446],[-61.412,16.471],[-61.425,16.476],[-61.435,16.487],[-61.443,16.49],[-61.446,16.5],[-61.461,16.499],[-61.465,16.51],[-61.475,16.509],[-61.486,16.491],[-61.504,16.484],[-61.508,16.474],[-61.518,16.471],[-61.535,16.455],[-61.541,16.439],[-61.533,16.424],[-61.533,16.415],[-61.526,16.395],[-61.507,16.389],[-61.498,16.382],[-61.495,16.352],[-61.506,16.35],[-61.508,16.342],[-61.519,16.343],[-61.53,16.339],[-61.536,16.331],[-61.534,16.313],[-61.542,16.296],[-61.551,16.287],[-61.547,16.254],[-61.54,16.237],[-61.525,16.217]]],[[[-61.124,14.63],[-61.113,14.627],[-61.089,14.6],[-61.071,14.603],[-61.059,14.594],[-61.036,14.595],[-61.04,14.606],[-61.022,14.603],[-61.016,14.596],[-61.024,14.585],[-61.015,14.582],[-61.014,14.571],[-61.007,14.562],[-60.995,14.559],[-60.99,14.55],[-61.013,14.536],[-61.028,14.537],[-61.054,14.552],[-61.067,14.54],[-61.077,14.541],[-61.088,14.534],[-61.1,14.507],[-61.085,14.505],[-61.08,14.489],[-61.082,14.47],[-61.072,14.469],[-61.059,14.454],[-61.049,14.458],[-61.042,14.473],[-61.021,14.481],[-60.997,14.468],[-60.99,14.468],[-60.98,14.482],[-60.974,14.468],[-60.966,14.473],[-60.955,14.465],[-60.943,14.466],[-60.932,14.463],[-60.91,14.469],[-60.911,14.461],[-60.9,14.452],[-60.875,14.472],[-60.864,14.469],[-60.863,14.461],[-60.884,14.448],[-60.88,14.438],[-60.893,14.419],[-60.887,14.415],[-60.884,14.405],[-60.869,14.395],[-60.857,14.398],[-60.835,14.423],[-60.834,14.432],[-60.825,14.437],[-60.824,14.452],[-60.815,14.46],[-60.819,14.469],[-60.811,14.481],[-60.816,14.493],[-60.824,14.498],[-60.825,14.515],[-60.833,14.524],[-60.825,14.533],[-60.836,14.546],[-60.833,14.566],[-60.848,14.565],[-60.854,14.574],[-60.849,14.588],[-60.859,14.589],[-60.872,14.596],[-60.87,14.606],[-60.887,14.618],[-60.899,14.623],[-60.892,14.633],[-60.898,14.645],[-60.886,14.653],[-60.883,14.665],[-60.899,14.661],[-60.906,14.667],[-60.917,14.663],[-60.92,14.655],[-60.929,14.653],[-60.935,14.665],[-60.942,14.667],[-60.937,14.684],[-60.913,14.692],[-60.914,14.714],[-60.932,14.707],[-60.946,14.726],[-60.945,14.738],[-60.936,14.751],[-60.925,14.751],[-60.912,14.744],[-60.911,14.736],[-60.893,14.737],[-60.898,14.746],[-60.888,14.753],[-60.893,14.762],[-60.875,14.775],[-60.888,14.78],[-60.902,14.767],[-60.912,14.766],[-60.92,14.758],[-60.932,14.763],[-60.952,14.749],[-60.957,14.736],[-60.973,14.763],[-60.997,14.788],[-61.008,14.81],[-61.017,14.808],[-61.029,14.83],[-61.044,14.837],[-61.057,14.834],[-61.064,14.843],[-61.078,14.847],[-61.114,14.87],[-61.148,14.879],[-61.171,14.877],[-61.195,14.865],[-61.207,14.862],[-61.223,14.838],[-61.229,14.822],[-61.227,14.803],[-61.213,14.781],[-61.205,14.779],[-61.198,14.767],[-61.185,14.757],[-61.177,14.741],[-61.185,14.709],[-61.177,14.689],[-61.159,14.664],[-61.152,14.65],[-61.138,14.641],[-61.136,14.634],[-61.124,14.63]]],[[[-61.318,15.964],[-61.319,15.954],[-61.337,15.941],[-61.329,15.904],[-61.332,15.901],[-61.323,15.886],[-61.302,15.874],[-61.274,15.867],[-61.243,15.874],[-61.222,15.888],[-61.218,15.895],[-61.205,15.901],[-61.197,15.916],[-61.195,15.93],[-61.201,15.945],[-61.231,15.974],[-61.233,15.986],[-61.242,15.992],[-61.253,15.992],[-61.259,15.998],[-61.276,16.005],[-61.29,16.004],[-61.296,15.998],[-61.309,15.978],[-61.318,15.976],[-61.318,15.964]]],[[[-61.007,16.342],[-61.017,16.349],[-61.028,16.341],[-61.056,16.327],[-61.075,16.319],[-61.079,16.312],[-61.089,16.312],[-61.098,16.303],[-61.098,16.296],[-61.084,16.297],[-61.075,16.302],[-61.049,16.308],[-61.019,16.328],[-61.002,16.334],[-61.007,16.342]]],[[[-53.388,5.56],[-53.403,5.564],[-53.456,5.569],[-53.469,5.565],[-53.509,5.578],[-53.566,5.601],[-53.576,5.607],[-53.593,5.608],[-53.611,5.619],[-53.63,5.633],[-53.651,5.644],[-53.662,5.647],[-53.689,5.665],[-53.697,5.668],[-53.722,5.686],[-53.736,5.689],[-53.787,5.719],[-53.799,5.724],[-53.837,5.732],[-53.854,5.731],[-53.895,5.733],[-53.912,5.74],[-53.934,5.747],[-53.951,5.744],[-53.968,5.745],[-53.972,5.734],[-53.984,5.715],[-53.99,5.7],[-54.012,5.664],[-54.015,5.641],[-54.005,5.612],[-54.007,5.589],[-54.004,5.573],[-54.01,5.545],[-54.019,5.521],[-54.038,5.51],[-54.047,5.492],[-54.064,5.481],[-54.093,5.441],[-54.105,5.431],[-54.118,5.417],[-54.127,5.402],[-54.133,5.385],[-54.148,5.363],[-54.174,5.342],[-54.184,5.323],[-54.197,5.319],[-54.209,5.303],[-54.228,5.299],[-54.24,5.286],[-54.256,5.281],[-54.279,5.263],[-54.286,5.249],[-54.308,5.225],[-54.313,5.213],[-54.328,5.188],[-54.334,5.176],[-54.346,5.162],[-54.351,5.144],[-54.365,5.138],[-54.368,5.122],[-54.375,5.108],[-54.399,5.092],[-54.416,5.085],[-54.417,5.061],[-54.426,5.034],[-54.438,5.017],[-54.436,4.993],[-54.443,4.987],[-54.44,4.972],[-54.44,4.953],[-54.446,4.935],[-54.469,4.915],[-54.479,4.904],[-54.478,4.895],[-54.469,4.89],[-54.467,4.873],[-54.469,4.863],[-54.466,4.824],[-54.468,4.815],[-54.464,4.788],[-54.46,4.778],[-54.464,4.76],[-54.466,4.74],[-54.459,4.726],[-54.435,4.725],[-54.427,4.715],[-54.433,4.697],[-54.426,4.683],[-54.428,4.673],[-54.424,4.665],[-54.434,4.656],[-54.438,4.643],[-54.415,4.607],[-54.418,4.579],[-54.424,4.572],[-54.425,4.555],[-54.439,4.542],[-54.45,4.526],[-54.44,4.499],[-54.441,4.488],[-54.432,4.468],[-54.434,4.45],[-54.442,4.438],[-54.432,4.415],[-54.435,4.408],[-54.436,4.384],[-54.442,4.371],[-54.436,4.362],[-54.416,4.376],[-54.395,4.365],[-54.387,4.354],[-54.391,4.341],[-54.394,4.307],[-54.393,4.29],[-54.382,4.263],[-54.388,4.246],[-54.396,4.202],[-54.387,4.179],[-54.366,4.176],[-54.348,4.164],[-54.341,4.156],[-54.325,4.15],[-54.323,4.135],[-54.336,4.119],[-54.344,4.113],[-54.346,4.099],[-54.342,4.09],[-54.352,4.073],[-54.358,4.05],[-54.345,4.045],[-54.336,4.037],[-54.327,4.023],[-54.318,4.015],[-54.308,3.989],[-54.303,3.983],[-54.296,3.948],[-54.283,3.927],[-54.249,3.909],[-54.253,3.899],[-54.25,3.887],[-54.237,3.861],[-54.231,3.857],[-54.197,3.851],[-54.19,3.837],[-54.202,3.823],[-54.198,3.806],[-54.186,3.8],[-54.166,3.805],[-54.13,3.8],[-54.122,3.793],[-54.113,3.768],[-54.101,3.752],[-54.096,3.733],[-54.085,3.724],[-54.079,3.706],[-54.087,3.687],[-54.083,3.674],[-54.057,3.66],[-54.05,3.653],[-54.051,3.635],[-54.029,3.631],[-54.023,3.647],[-54.007,3.649],[-53.992,3.626],[-53.989,3.615],[-53.981,3.608],[-53.987,3.58],[-53.999,3.571],[-54.005,3.561],[-54.009,3.536],[-54,3.524],[-54.008,3.507],[-54.008,3.468],[-54.017,3.457],[-54.019,3.436],[-54.012,3.427],[-54.021,3.412],[-54.034,3.405],[-54.05,3.386],[-54.059,3.378],[-54.054,3.363],[-54.062,3.352],[-54.063,3.333],[-54.067,3.324],[-54.064,3.316],[-54.07,3.303],[-54.081,3.293],[-54.101,3.3],[-54.11,3.287],[-54.118,3.285],[-54.122,3.272],[-54.136,3.266],[-54.145,3.25],[-54.152,3.247],[-54.154,3.233],[-54.163,3.23],[-54.175,3.206],[-54.189,3.206],[-54.203,3.175],[-54.203,3.158],[-54.214,3.15],[-54.208,3.137],[-54.211,3.128],[-54.197,3.126],[-54.188,3.133],[-54.179,3.121],[-54.174,3.106],[-54.181,3.091],[-54.174,3.073],[-54.184,3.073],[-54.195,3.065],[-54.17,3.016],[-54.17,3.006],[-54.178,3.001],[-54.181,2.984],[-54.177,2.976],[-54.163,2.972],[-54.176,2.958],[-54.173,2.939],[-54.179,2.928],[-54.191,2.925],[-54.185,2.917],[-54.186,2.904],[-54.195,2.885],[-54.189,2.868],[-54.181,2.865],[-54.186,2.838],[-54.198,2.835],[-54.208,2.827],[-54.198,2.804],[-54.211,2.789],[-54.208,2.778],[-54.223,2.754],[-54.246,2.739],[-54.265,2.723],[-54.273,2.693],[-54.269,2.685],[-54.281,2.663],[-54.291,2.661],[-54.296,2.652],[-54.308,2.642],[-54.317,2.62],[-54.323,2.594],[-54.335,2.565],[-54.345,2.563],[-54.343,2.543],[-54.349,2.525],[-54.37,2.509],[-54.373,2.491],[-54.389,2.481],[-54.387,2.47],[-54.399,2.468],[-54.403,2.458],[-54.42,2.437],[-54.434,2.435],[-54.438,2.43],[-54.451,2.435],[-54.476,2.435],[-54.486,2.412],[-54.496,2.406],[-54.505,2.391],[-54.505,2.378],[-54.512,2.36],[-54.506,2.342],[-54.51,2.337],[-54.534,2.334],[-54.535,2.341],[-54.558,2.352],[-54.57,2.354],[-54.585,2.35],[-54.59,2.352],[-54.602,2.337],[-54.588,2.322],[-54.576,2.327],[-54.543,2.327],[-54.533,2.317],[-54.539,2.306],[-54.534,2.293],[-54.519,2.289],[-54.52,2.277],[-54.549,2.272],[-54.536,2.261],[-54.527,2.261],[-54.523,2.252],[-54.505,2.255],[-54.496,2.249],[-54.496,2.233],[-54.486,2.233],[-54.476,2.226],[-54.478,2.216],[-54.449,2.204],[-54.431,2.214],[-54.419,2.212],[-54.421,2.2],[-54.397,2.197],[-54.391,2.205],[-54.38,2.203],[-54.362,2.212],[-54.355,2.203],[-54.362,2.195],[-54.363,2.18],[-54.353,2.171],[-54.339,2.169],[-54.344,2.161],[-54.342,2.152],[-54.321,2.159],[-54.311,2.157],[-54.288,2.148],[-54.266,2.145],[-54.258,2.155],[-54.245,2.156],[-54.24,2.152],[-54.224,2.15],[-54.216,2.159],[-54.19,2.171],[-54.173,2.144],[-54.169,2.129],[-54.15,2.12],[-54.126,2.124],[-54.112,2.118],[-54.106,2.121],[-54.094,2.14],[-54.087,2.142],[-54.088,2.154],[-54.082,2.166],[-54.083,2.173],[-54.072,2.179],[-54.066,2.197],[-54.046,2.186],[-54.033,2.188],[-54.024,2.181],[-54.016,2.183],[-54.006,2.196],[-53.99,2.209],[-53.973,2.206],[-53.962,2.219],[-53.944,2.215],[-53.94,2.221],[-53.941,2.233],[-53.933,2.237],[-53.934,2.248],[-53.941,2.259],[-53.934,2.269],[-53.915,2.278],[-53.915,2.262],[-53.905,2.261],[-53.896,2.273],[-53.885,2.275],[-53.883,2.287],[-53.887,2.297],[-53.883,2.309],[-53.871,2.309],[-53.856,2.313],[-53.853,2.304],[-53.838,2.302],[-53.823,2.313],[-53.813,2.311],[-53.815,2.322],[-53.828,2.323],[-53.835,2.332],[-53.81,2.341],[-53.806,2.354],[-53.797,2.362],[-53.783,2.361],[-53.766,2.376],[-53.751,2.37],[-53.736,2.372],[-53.738,2.361],[-53.721,2.35],[-53.726,2.339],[-53.738,2.332],[-53.733,2.322],[-53.748,2.32],[-53.744,2.31],[-53.699,2.311],[-53.69,2.306],[-53.689,2.295],[-53.665,2.302],[-53.661,2.295],[-53.652,2.296],[-53.657,2.279],[-53.641,2.28],[-53.615,2.277],[-53.604,2.281],[-53.598,2.274],[-53.582,2.268],[-53.56,2.265],[-53.547,2.253],[-53.526,2.253],[-53.524,2.259],[-53.511,2.257],[-53.484,2.262],[-53.469,2.252],[-53.451,2.26],[-53.445,2.273],[-53.431,2.289],[-53.411,2.287],[-53.399,2.305],[-53.372,2.313],[-53.359,2.327],[-53.356,2.348],[-53.347,2.347],[-53.34,2.352],[-53.328,2.338],[-53.321,2.338],[-53.313,2.328],[-53.307,2.314],[-53.297,2.305],[-53.281,2.301],[-53.273,2.293],[-53.26,2.286],[-53.256,2.27],[-53.241,2.269],[-53.227,2.264],[-53.238,2.249],[-53.252,2.241],[-53.263,2.22],[-53.275,2.217],[-53.274,2.19],[-53.263,2.189],[-53.256,2.2],[-53.245,2.211],[-53.236,2.21],[-53.224,2.201],[-53.216,2.203],[-53.21,2.211],[-53.185,2.211],[-53.159,2.221],[-53.145,2.219],[-53.134,2.225],[-53.128,2.223],[-53.112,2.225],[-53.094,2.222],[-53.08,2.222],[-53.074,2.219],[-53.052,2.19],[-53.033,2.187],[-53.012,2.178],[-52.999,2.178],[-52.988,2.168],[-52.96,2.175],[-52.957,2.173],[-52.938,2.181],[-52.939,2.19],[-52.913,2.192],[-52.904,2.187],[-52.901,2.199],[-52.888,2.224],[-52.885,2.233],[-52.877,2.238],[-52.873,2.251],[-52.866,2.261],[-52.854,2.264],[-52.853,2.279],[-52.838,2.281],[-52.842,2.291],[-52.819,2.295],[-52.793,2.305],[-52.781,2.316],[-52.773,2.315],[-52.765,2.323],[-52.749,2.329],[-52.74,2.337],[-52.717,2.344],[-52.719,2.35],[-52.71,2.359],[-52.68,2.371],[-52.661,2.374],[-52.654,2.396],[-52.657,2.404],[-52.643,2.426],[-52.646,2.432],[-52.634,2.446],[-52.617,2.445],[-52.611,2.455],[-52.622,2.462],[-52.618,2.475],[-52.598,2.475],[-52.589,2.492],[-52.565,2.516],[-52.552,2.521],[-52.556,2.541],[-52.561,2.55],[-52.551,2.561],[-52.537,2.559],[-52.538,2.567],[-52.528,2.581],[-52.531,2.598],[-52.55,2.611],[-52.542,2.622],[-52.555,2.64],[-52.542,2.654],[-52.529,2.652],[-52.528,2.663],[-52.52,2.676],[-52.52,2.682],[-52.507,2.698],[-52.5,2.722],[-52.488,2.733],[-52.476,2.763],[-52.478,2.777],[-52.473,2.794],[-52.456,2.822],[-52.445,2.85],[-52.442,2.853],[-52.42,2.893],[-52.39,2.898],[-52.379,2.913],[-52.388,2.917],[-52.395,2.928],[-52.371,2.976],[-52.371,2.989],[-52.366,2.995],[-52.362,3.017],[-52.354,3.021],[-52.346,3.042],[-52.326,3.078],[-52.345,3.098],[-52.345,3.108],[-52.339,3.117],[-52.352,3.123],[-52.346,3.136],[-52.336,3.151],[-52.329,3.166],[-52.312,3.175],[-52.299,3.178],[-52.303,3.199],[-52.295,3.212],[-52.293,3.226],[-52.275,3.236],[-52.26,3.253],[-52.249,3.25],[-52.243,3.237],[-52.234,3.241],[-52.223,3.254],[-52.21,3.277],[-52.189,3.302],[-52.187,3.32],[-52.177,3.327],[-52.169,3.345],[-52.162,3.351],[-52.15,3.376],[-52.138,3.394],[-52.122,3.424],[-52.109,3.451],[-52.095,3.462],[-52.094,3.475],[-52.087,3.49],[-52.074,3.5],[-52.07,3.518],[-52.06,3.52],[-52.02,3.593],[-52.003,3.609],[-51.988,3.628],[-51.993,3.643],[-51.987,3.653],[-51.986,3.673],[-51.978,3.685],[-51.973,3.705],[-51.956,3.72],[-51.936,3.719],[-51.922,3.724],[-51.916,3.746],[-51.926,3.767],[-51.919,3.782],[-51.913,3.78],[-51.898,3.784],[-51.898,3.798],[-51.886,3.795],[-51.884,3.802],[-51.874,3.803],[-51.856,3.833],[-51.838,3.85],[-51.823,3.859],[-51.822,3.868],[-51.814,3.873],[-51.799,3.887],[-51.783,3.921],[-51.78,3.941],[-51.783,3.946],[-51.782,3.964],[-51.776,3.976],[-51.746,4.001],[-51.729,4.008],[-51.702,4.024],[-51.676,4.036],[-51.656,4.054],[-51.648,4.08],[-51.642,4.116],[-51.638,4.133],[-51.635,4.176],[-51.626,4.195],[-51.635,4.201],[-51.64,4.212],[-51.657,4.233],[-51.661,4.244],[-51.676,4.254],[-51.68,4.266],[-51.701,4.294],[-51.71,4.312],[-51.718,4.34],[-51.718,4.357],[-51.708,4.376],[-51.694,4.382],[-51.703,4.39],[-51.727,4.398],[-51.752,4.418],[-51.755,4.425],[-51.75,4.447],[-51.77,4.471],[-51.777,4.49],[-51.773,4.499],[-51.775,4.521],[-51.783,4.547],[-51.785,4.577],[-51.796,4.606],[-51.802,4.618],[-51.823,4.636],[-51.836,4.654],[-51.849,4.661],[-51.862,4.672],[-51.877,4.672],[-51.904,4.677],[-51.916,4.669],[-52.006,4.702],[-52.018,4.718],[-52.024,4.716],[-52.032,4.728],[-52.051,4.741],[-52.072,4.753],[-52.087,4.768],[-52.101,4.772],[-52.11,4.785],[-52.122,4.788],[-52.139,4.797],[-52.146,4.791],[-52.16,4.809],[-52.178,4.823],[-52.186,4.822],[-52.201,4.851],[-52.21,4.859],[-52.229,4.86],[-52.244,4.878],[-52.246,4.887],[-52.263,4.9],[-52.263,4.914],[-52.282,4.933],[-52.287,4.943],[-52.293,4.941],[-52.302,4.951],[-52.333,4.942],[-52.334,4.931],[-52.356,4.918],[-52.365,4.921],[-52.39,4.945],[-52.402,4.964],[-52.414,4.972],[-52.416,4.982],[-52.43,4.99],[-52.46,5.012],[-52.468,5.023],[-52.49,5.041],[-52.493,5.047],[-52.523,5.076],[-52.538,5.088],[-52.552,5.088],[-52.556,5.1],[-52.58,5.112],[-52.591,5.12],[-52.607,5.135],[-52.628,5.146],[-52.628,5.163],[-52.637,5.166],[-52.656,5.185],[-52.666,5.2],[-52.684,5.21],[-52.723,5.237],[-52.734,5.249],[-52.747,5.258],[-52.765,5.275],[-52.785,5.297],[-52.788,5.308],[-52.805,5.319],[-52.832,5.333],[-52.834,5.347],[-52.847,5.36],[-52.853,5.374],[-52.873,5.393],[-52.896,5.41],[-52.905,5.419],[-52.924,5.43],[-52.935,5.446],[-52.953,5.455],[-52.957,5.45],[-52.971,5.456],[-52.983,5.454],[-52.997,5.46],[-53.003,5.439],[-53.014,5.455],[-53.072,5.468],[-53.09,5.48],[-53.105,5.486],[-53.126,5.5],[-53.128,5.506],[-53.172,5.523],[-53.188,5.525],[-53.234,5.543],[-53.261,5.549],[-53.269,5.552],[-53.275,5.563],[-53.301,5.553],[-53.293,5.54],[-53.318,5.539],[-53.331,5.545],[-53.368,5.552],[-53.388,5.56]]]]}},{"type":"Feature","properties":{"crous_id":1,"crous_slug":"bordeaux-aquitaine","crous_libelle":"Bordeaux","crous_nom":"Bordeaux-Aquitaine","departements":["24","33","40","47","64"],"credit":"croustillant.menu"},"geometry":{"type":"Polygon","coordinates":[[[-0.313,42.849],[-0.325,42.904],[-0.279,42.939],[-0.293,42.993],[-0.19,43.052],[-0.175,43.11],[-0.146,43.128],[-0.118,43.18],[-0.068,43.177],[-0.073,43.224],[-0.017,43.27],[-0.046,43.301],[-0.025,43.33],[0.03,43.346],[-0.004,43.372],[0.01,43.422],[-0.017,43.441],[-0.04,43.513],[-0.097,43.582],[-0.179,43.596],[-0.242,43.583],[-0.251,43.708],[-0.194,43.737],[-0.222,43.789],[-0.194,43.808],[-0.19,43.881],[-0.218,43.907],[-0.176,43.936],[-0.103,43.927],[-0.047,43.961],[0.031,43.901],[0.069,43.904],[0.056,43.961],[0.085,43.985],[0.167,43.997],[0.214,44.023],[0.304,43.993],[0.314,44.005],[0.442,44.029],[0.46,44.055],[0.555,44.055],[0.601,44.078],[0.663,44.024],[0.708,44.058],[0.739,44.061],[0.757,44.107],[0.819,44.144],[0.867,44.126],[0.89,44.153],[0.854,44.175],[0.905,44.197],[0.951,44.275],[0.871,44.315],[0.92,44.384],[0.952,44.362],[1.049,44.362],[1.064,44.381],[1.054,44.432],[1.028,44.434],[1.016,44.506],[0.982,44.545],[1.103,44.572],[1.095,44.592],[1.154,44.639],[1.149,44.67],[1.225,44.684],[1.299,44.726],[1.323,44.765],[1.302,44.798],[1.364,44.812],[1.36,44.834],[1.44,44.875],[1.442,44.916],[1.409,45.006],[1.448,45.019],[1.4,45.061],[1.385,45.104],[1.413,45.125],[1.255,45.159],[1.292,45.187],[1.234,45.222],[1.275,45.238],[1.228,45.272],[1.242,45.301],[1.316,45.361],[1.325,45.38],[1.257,45.402],[1.275,45.435],[1.21,45.463],[1.118,45.482],[1.167,45.525],[1.13,45.544],[1.08,45.536],[1.047,45.557],[1.023,45.61],[0.939,45.612],[0.843,45.582],[0.775,45.592],[0.752,45.617],[0.776,45.667],[0.742,45.691],[0.67,45.686],[0.63,45.715],[0.575,45.641],[0.503,45.611],[0.506,45.554],[0.432,45.5],[0.275,45.426],[0.248,45.369],[0.27,45.305],[0.22,45.289],[0.203,45.262],[0.131,45.208],[0.053,45.227],[-0.017,45.17],[0.004,45.152],[-0.064,45.099],[-0.098,45.121],[-0.142,45.09],[-0.247,45.109],[-0.275,45.141],[-0.364,45.17],[-0.418,45.204],[-0.408,45.246],[-0.425,45.279],[-0.482,45.294],[-0.57,45.299],[-0.594,45.321],[-0.723,45.327],[-0.753,45.322],[-0.774,45.369],[-0.841,45.435],[-1.026,45.575],[-1.062,45.572],[-1.139,45.508],[-1.157,45.47],[-1.162,45.3],[-1.208,44.962],[-1.262,44.648],[-1.219,44.71],[-1.162,44.775],[-1.051,44.706],[-1.015,44.65],[-1.081,44.64],[-1.192,44.661],[-1.223,44.582],[-1.259,44.547],[-1.251,44.489],[-1.277,44.32],[-1.316,44.13],[-1.371,43.927],[-1.419,43.774],[-1.448,43.642],[-1.492,43.572],[-1.595,43.44],[-1.629,43.414],[-1.792,43.371],[-1.73,43.296],[-1.669,43.315],[-1.609,43.252],[-1.577,43.25],[-1.532,43.294],[-1.439,43.267],[-1.413,43.273],[-1.378,43.23],[-1.415,43.128],[-1.472,43.081],[-1.441,43.046],[-1.354,43.028],[-1.345,43.094],[-1.247,43.042],[-1.113,43.022],[-1.071,42.998],[-1.017,42.995],[-0.946,42.954],[-0.81,42.951],[-0.752,42.967],[-0.724,42.922],[-0.724,42.89],[-0.676,42.883],[-0.604,42.833],[-0.591,42.803],[-0.53,42.792],[-0.51,42.825],[-0.443,42.796],[-0.368,42.814],[-0.313,42.849]],[[-0.101,43.251],[-0.138,43.28],[-0.111,43.31],[-0.08,43.263],[-0.101,43.251]]]}},{"type":"Feature","properties":{"crous_id":30,"crous_slug":"bourgogne-franche-comte","crous_libelle":"Bourgogne Franche Comte","crous_nom":"Bourgogne Franche-Comté","departements":["21","25","39","58","70","71","89","90"],"credit":"croustillant.menu"},"geometry":{"type":"Polygon","coordinates":[[[3.9,46.276],[3.918,46.203],[3.973,46.203],[3.986,46.171],[4.028,46.169],[4.104,46.198],[4.133,46.177],[4.256,46.186],[4.25,46.158],[4.346,46.188],[4.389,46.213],[4.398,46.283],[4.427,46.303],[4.504,46.267],[4.573,46.276],[4.619,46.265],[4.635,46.299],[4.679,46.306],[4.71,46.279],[4.727,46.179],[4.78,46.177],[4.811,46.26],[4.853,46.33],[4.851,46.356],[4.888,46.403],[4.892,46.44],[4.936,46.514],[5.001,46.512],[5.056,46.484],[5.173,46.513],[5.226,46.468],[5.284,46.446],[5.307,46.415],[5.367,46.389],[5.373,46.352],[5.417,46.345],[5.475,46.315],[5.474,46.264],[5.542,46.27],[5.597,46.297],[5.649,46.341],[5.715,46.309],[5.725,46.261],[5.766,46.268],[5.853,46.262],[5.909,46.284],[5.991,46.365],[6.064,46.416],[6.077,46.467],[6.156,46.545],[6.111,46.576],[6.208,46.636],[6.282,46.691],[6.341,46.71],[6.395,46.748],[6.439,46.763],[6.435,46.801],[6.465,46.89],[6.433,46.929],[6.497,46.974],[6.564,46.98],[6.64,47.003],[6.712,47.048],[6.7,47.07],[6.74,47.108],[6.806,47.13],[6.858,47.164],[6.88,47.2],[6.955,47.243],[6.941,47.287],[7.009,47.302],[7.057,47.335],[7.048,47.362],[6.879,47.358],[6.938,47.406],[6.941,47.433],[6.989,47.448],[6.988,47.495],[7.016,47.504],[7.079,47.489],[7.13,47.503],[7.136,47.537],[7.07,47.601],[7.006,47.602],[7.04,47.686],[7.034,47.725],[6.94,47.772],[6.863,47.785],[6.846,47.823],[6.793,47.829],[6.65,47.902],[6.603,47.945],[6.544,47.903],[6.478,47.885],[6.436,47.937],[6.366,47.962],[6.277,47.954],[6.238,47.933],[6.182,47.956],[6.131,48.024],[6.041,48.004],[6.002,47.956],[5.939,47.979],[5.885,47.926],[5.851,47.906],[5.816,47.849],[5.744,47.849],[5.736,47.818],[5.682,47.809],[5.68,47.77],[5.71,47.745],[5.684,47.712],[5.691,47.685],[5.53,47.673],[5.406,47.673],[5.4,47.648],[5.345,47.605],[5.306,47.607],[5.257,47.577],[5.237,47.621],[5.174,47.653],[5.086,47.657],[5.013,47.706],[4.954,47.701],[4.959,47.762],[4.982,47.8],[4.954,47.867],[4.903,47.921],[4.845,47.961],[4.787,47.964],[4.789,48.008],[4.673,48.015],[4.579,48.029],[4.549,48.004],[4.554,47.967],[4.439,47.958],[4.418,47.968],[4.343,47.956],[4.293,47.926],[4.245,47.93],[4.166,47.96],[4.11,47.926],[3.926,47.935],[3.902,47.995],[3.824,48.043],[3.826,48.064],[3.78,48.121],[3.705,48.144],[3.668,48.139],[3.622,48.226],[3.617,48.271],[3.544,48.32],[3.498,48.37],[3.415,48.39],[3.365,48.372],[3.268,48.378],[3.2,48.364],[3.14,48.373],[3.046,48.358],[3.016,48.308],[3.045,48.272],[3.007,48.215],[2.973,48.206],[2.936,48.163],[3.029,48.133],[3.05,48.072],[3.08,48.06],[3.124,48.007],[3.128,47.971],[3.05,47.911],[3.01,47.905],[3.032,47.85],[3.015,47.833],[3.024,47.786],[2.931,47.762],[2.87,47.765],[2.849,47.726],[2.914,47.691],[2.936,47.599],[2.964,47.582],[2.849,47.538],[2.888,47.509],[2.932,47.439],[2.87,47.34],[2.983,47.261],[2.978,47.236],[3.021,47.153],[3.023,47.063],[3.075,47.029],[3.063,46.979],[3.079,46.955],[3.05,46.911],[3.067,46.882],[3.059,46.826],[3.032,46.795],[3.049,46.758],[3.13,46.727],[3.166,46.692],[3.204,46.679],[3.27,46.717],[3.314,46.689],[3.366,46.69],[3.418,46.71],[3.482,46.651],[3.548,46.706],[3.598,46.724],[3.638,46.708],[3.697,46.661],[3.732,46.605],[3.742,46.54],[3.865,46.51],[3.89,46.481],[3.958,46.491],[3.999,46.465],[3.977,46.399],[3.992,46.37],[3.984,46.319],[3.914,46.297],[3.9,46.276]]]}},{"type":"Feature","properties":{"crous_id":11,"crous_slug":"clermont-auvergne","crous_libelle":"Clermont-Ferrand","crous_nom":"Clermont Auvergne","departements":["03","15","43","63"],"credit":"croustillant.menu"},"geometry":{"type":"Polygon","coordinates":[[[4.483,45.236],[4.434,45.275],[4.371,45.261],[4.366,45.339],[4.335,45.368],[4.275,45.358],[4.235,45.389],[4.178,45.393],[4.015,45.333],[3.986,45.372],[3.937,45.372],[3.889,45.395],[3.914,45.422],[3.963,45.435],[3.965,45.503],[3.935,45.578],[3.823,45.632],[3.78,45.689],[3.783,45.707],[3.732,45.775],[3.728,45.855],[3.754,45.886],[3.694,45.931],[3.736,45.967],[3.824,45.987],[3.807,46.046],[3.822,46.088],[3.796,46.112],[3.797,46.207],[3.77,46.232],[3.807,46.257],[3.9,46.276],[3.914,46.297],[3.984,46.319],[3.992,46.37],[3.977,46.399],[3.999,46.465],[3.958,46.491],[3.89,46.481],[3.865,46.51],[3.742,46.54],[3.732,46.605],[3.697,46.661],[3.638,46.708],[3.598,46.724],[3.548,46.706],[3.482,46.651],[3.418,46.71],[3.366,46.69],[3.314,46.689],[3.27,46.717],[3.204,46.679],[3.166,46.692],[3.13,46.727],[3.049,46.758],[3.032,46.795],[2.961,46.804],[2.827,46.735],[2.786,46.723],[2.705,46.739],[2.645,46.69],[2.629,46.66],[2.576,46.611],[2.615,46.553],[2.537,46.52],[2.483,46.533],[2.45,46.521],[2.368,46.518],[2.305,46.475],[2.281,46.42],[2.303,46.354],[2.336,46.323],[2.392,46.33],[2.476,46.281],[2.516,46.237],[2.529,46.192],[2.56,46.173],[2.547,46.113],[2.572,46.049],[2.603,46.033],[2.594,45.99],[2.529,45.9],[2.492,45.864],[2.448,45.866],[2.431,45.836],[2.388,45.827],[2.435,45.767],[2.509,45.724],[2.529,45.682],[2.517,45.639],[2.483,45.639],[2.461,45.596],[2.515,45.554],[2.507,45.464],[2.486,45.379],[2.398,45.401],[2.369,45.387],[2.352,45.328],[2.318,45.323],[2.271,45.29],[2.241,45.249],[2.195,45.221],[2.208,45.144],[2.157,45.086],[2.095,45.056],[2.142,45],[2.13,44.984],[2.063,44.977],[2.091,44.876],[2.172,44.79],[2.146,44.72],[2.179,44.674],[2.169,44.639],[2.323,44.669],[2.355,44.64],[2.483,44.65],[2.5,44.69],[2.555,44.729],[2.563,44.778],[2.6,44.793],[2.603,44.843],[2.7,44.904],[2.741,44.94],[2.777,44.889],[2.851,44.872],[2.893,44.786],[2.938,44.775],[2.925,44.729],[2.955,44.661],[2.982,44.645],[3.031,44.749],[3.046,44.798],[3.085,44.833],[3.103,44.885],[3.141,44.903],[3.182,44.864],[3.236,44.888],[3.243,44.932],[3.286,44.926],[3.371,44.96],[3.415,44.942],[3.418,44.901],[3.455,44.832],[3.506,44.824],[3.587,44.838],[3.63,44.881],[3.658,44.872],[3.666,44.829],[3.735,44.833],[3.835,44.748],[3.863,44.744],[3.921,44.767],[3.947,44.824],[3.989,44.815],[4.03,44.869],[4.159,44.874],[4.253,44.959],[4.314,44.974],[4.29,44.997],[4.309,45.031],[4.36,45.056],[4.374,45.144],[4.443,45.141],[4.473,45.179],[4.483,45.236]]]}},{"type":"Feature","properties":{"crous_id":28,"crous_slug":"corse","crous_libelle":"Corse","crous_nom":"Corse","departements":["2A","2B"],"credit":"croustillant.menu"},"geometry":{"type":"Polygon","coordinates":[[[9.401,41.852],[9.414,41.956],[9.55,42.104],[9.56,42.282],[9.532,42.385],[9.541,42.46],[9.534,42.542],[9.516,42.583],[9.462,42.64],[9.446,42.674],[9.472,42.771],[9.491,42.794],[9.469,42.936],[9.441,43.001],[9.343,42.999],[9.354,42.916],[9.325,42.9],[9.333,42.864],[9.31,42.834],[9.343,42.795],[9.346,42.743],[9.323,42.697],[9.284,42.676],[9.221,42.736],[9.125,42.732],[9.01,42.64],[8.903,42.627],[8.803,42.603],[8.805,42.571],[8.717,42.551],[8.718,42.525],[8.665,42.512],[8.675,42.476],[8.655,42.415],[8.606,42.416],[8.551,42.346],[8.617,42.348],[8.626,42.312],[8.674,42.294],[8.687,42.263],[8.54,42.235],[8.581,42.206],[8.585,42.152],[8.659,42.107],[8.69,42.115],[8.741,42.041],[8.658,42.01],[8.648,41.968],[8.592,41.964],[8.622,41.928],[8.609,41.91],[8.717,41.908],[8.755,41.932],[8.803,41.89],[8.791,41.856],[8.728,41.774],[8.685,41.747],[8.707,41.722],[8.767,41.74],[8.881,41.67],[8.87,41.646],[8.791,41.628],[8.777,41.59],[8.81,41.556],[8.843,41.547],[8.941,41.489],[8.965,41.49],[9.107,41.429],[9.091,41.402],[9.22,41.367],[9.251,41.41],[9.244,41.447],[9.285,41.479],[9.275,41.504],[9.303,41.546],[9.343,41.559],[9.365,41.596],[9.353,41.627],[9.4,41.693],[9.408,41.766],[9.394,41.798],[9.401,41.852]]]}},{"type":"Feature","properties":{"crous_id":13,"crous_slug":"creteil","crous_libelle":"Créteil","crous_nom":"Créteil","departements":["77","93","94"],"credit":"croustillant.menu"},"geometry":{"type":"Polygon","coordinates":[[[2.591,49.08],[2.584,49.047],[2.515,48.982],[2.459,48.955],[2.361,48.974],[2.333,48.956],[2.32,48.9],[2.385,48.902],[2.414,48.871],[2.402,48.83],[2.332,48.817],[2.309,48.755],[2.371,48.72],[2.448,48.722],[2.504,48.735],[2.554,48.688],[2.541,48.594],[2.499,48.543],[2.5,48.441],[2.527,48.416],[2.451,48.375],[2.403,48.321],[2.424,48.26],[2.469,48.255],[2.523,48.195],[2.46,48.137],[2.64,48.139],[2.704,48.124],[2.794,48.169],[2.801,48.131],[2.867,48.156],[2.936,48.163],[2.973,48.206],[3.007,48.215],[3.045,48.272],[3.016,48.308],[3.046,48.358],[3.14,48.373],[3.2,48.364],[3.268,48.378],[3.365,48.372],[3.415,48.39],[3.389,48.477],[3.435,48.49],[3.414,48.533],[3.486,48.545],[3.466,48.57],[3.503,48.605],[3.443,48.673],[3.474,48.689],[3.47,48.738],[3.396,48.759],[3.434,48.781],[3.441,48.812],[3.485,48.825],[3.485,48.852],[3.446,48.86],[3.33,48.909],[3.305,48.949],[3.161,49.024],[3.189,49.046],[3.165,49.1],[3.068,49.114],[3.03,49.086],[2.902,49.085],[2.87,49.07],[2.809,49.098],[2.754,49.061],[2.705,49.065],[2.631,49.102],[2.591,49.08]]]}},{"type":"Feature","properties":{"crous_id":15,"crous_slug":"grenoble-alpes","crous_libelle":"Grenoble","crous_nom":"Grenoble Alpes","departements":["07","26","38","73","74"],"credit":"croustillant.menu"},"geometry":{"type":"Polygon","coordinates":[[[4.649,44.27],[4.651,44.33],[4.78,44.319],[4.805,44.293],[4.814,44.232],[4.879,44.261],[4.922,44.26],[5.061,44.308],[5.104,44.28],[5.174,44.308],[5.149,44.235],[5.238,44.213],[5.252,44.231],[5.337,44.204],[5.385,44.201],[5.383,44.16],[5.438,44.149],[5.451,44.122],[5.495,44.115],[5.541,44.133],[5.576,44.188],[5.64,44.168],[5.685,44.193],[5.676,44.276],[5.648,44.272],[5.618,44.332],[5.494,44.338],[5.438,44.367],[5.434,44.433],[5.464,44.448],[5.48,44.491],[5.516,44.492],[5.603,44.465],[5.627,44.535],[5.597,44.543],[5.646,44.609],[5.652,44.655],[5.721,44.64],[5.757,44.661],[5.791,44.653],[5.826,44.686],[5.804,44.706],[5.851,44.751],[5.919,44.751],[5.98,44.781],[5.95,44.805],[6.03,44.838],[6.067,44.821],[6.133,44.865],[6.25,44.852],[6.304,44.873],[6.354,44.853],[6.359,44.941],[6.323,44.953],[6.306,45.005],[6.252,44.997],[6.204,45.012],[6.229,45.108],[6.338,45.121],[6.396,45.061],[6.486,45.056],[6.48,45.091],[6.577,45.123],[6.63,45.109],[6.68,45.14],[6.74,45.137],[6.768,45.16],[6.848,45.127],[6.885,45.158],[6.947,45.171],[6.966,45.208],[7.081,45.224],[7.138,45.257],[7.115,45.329],[7.165,45.361],[7.186,45.403],[7.114,45.434],[7.1,45.469],[7.048,45.473],[7,45.504],[6.987,45.624],[6.846,45.69],[6.808,45.725],[6.801,45.781],[6.819,45.836],[6.922,45.848],[6.999,45.874],[7.045,45.922],[7.01,45.997],[6.985,46.005],[6.95,46.052],[6.909,46.05],[6.883,46.095],[6.9,46.124],[6.815,46.13],[6.793,46.164],[6.804,46.203],[6.852,46.252],[6.865,46.283],[6.787,46.332],[6.771,46.361],[6.793,46.393],[6.724,46.408],[6.513,46.405],[6.475,46.375],[6.385,46.341],[6.327,46.372],[6.277,46.35],[6.238,46.281],[6.294,46.225],[6.234,46.206],[6.189,46.166],[6.127,46.14],[6.052,46.151],[5.956,46.132],[5.894,46.119],[5.883,46.085],[5.832,46.106],[5.811,46.078],[5.81,45.99],[5.834,45.972],[5.829,45.909],[5.787,45.809],[5.784,45.744],[5.757,45.709],[5.701,45.702],[5.689,45.649],[5.624,45.613],[5.586,45.667],[5.545,45.687],[5.546,45.714],[5.483,45.755],[5.421,45.809],[5.401,45.859],[5.351,45.884],[5.302,45.848],[5.267,45.789],[5.221,45.768],[5.126,45.811],[5.096,45.803],[5.095,45.739],[5.131,45.708],[5.054,45.66],[5.035,45.637],[4.971,45.613],[4.901,45.606],[4.814,45.569],[4.868,45.523],[4.755,45.453],[4.742,45.418],[4.756,45.366],[4.68,45.346],[4.599,45.289],[4.607,45.255],[4.483,45.236],[4.473,45.179],[4.443,45.141],[4.374,45.144],[4.36,45.056],[4.309,45.031],[4.29,44.997],[4.314,44.974],[4.253,44.959],[4.159,44.874],[4.03,44.869],[3.989,44.815],[3.947,44.824],[3.921,44.767],[3.863,44.744],[3.862,44.712],[3.898,44.643],[3.894,44.616],[3.949,44.573],[3.988,44.504],[3.997,44.46],[4.046,44.433],[4.04,44.391],[4.094,44.335],[4.14,44.328],[4.258,44.265],[4.291,44.309],[4.336,44.34],[4.391,44.347],[4.39,44.301],[4.44,44.283],[4.451,44.333],[4.504,44.34],[4.559,44.302],[4.649,44.27]],[[4.902,44.371],[4.919,44.408],[4.989,44.423],[5.016,44.393],[5.072,44.377],[5.023,44.346],[4.98,44.297],[4.891,44.306],[4.873,44.35],[4.902,44.371]]]}},{"type":"Feature","properties":{"crous_id":16,"crous_slug":"lille","crous_libelle":"Lille","crous_nom":"Lille","departements":["59","62"],"credit":"croustillant.menu"},"geometry":{"type":"Polygon","coordinates":[[[1.642,50.352],[1.674,50.334],[1.762,50.362],[1.805,50.36],[1.883,50.318],[2.011,50.267],[2.063,50.256],[2.084,50.206],[2.16,50.195],[2.213,50.218],[2.246,50.211],[2.36,50.215],[2.452,50.226],[2.496,50.195],[2.391,50.156],[2.375,50.109],[2.43,50.088],[2.455,50.131],[2.552,50.143],[2.691,50.093],[2.73,50.126],[2.777,50.116],[2.763,50.038],[2.848,50.078],[2.879,50.03],[3.015,50.058],[3.098,50.046],[3.174,50.012],[3.231,50.031],[3.286,50.014],[3.352,50.036],[3.491,50.019],[3.562,50.054],[3.614,50.025],[3.715,50.069],[3.747,50.053],[3.836,50.048],[3.895,50.016],[3.954,50.03],[4.012,49.985],[4.084,49.969],[4.141,49.979],[4.136,50.019],[4.231,50.071],[4.197,50.135],[4.151,50.159],[4.16,50.203],[4.208,50.273],[4.123,50.298],[4.024,50.359],[3.911,50.329],[3.853,50.352],[3.739,50.348],[3.71,50.303],[3.674,50.335],[3.669,50.439],[3.607,50.497],[3.522,50.495],[3.518,50.525],[3.474,50.534],[3.447,50.506],[3.392,50.498],[3.287,50.528],[3.274,50.604],[3.244,50.641],[3.265,50.676],[3.218,50.712],[3.147,50.79],[3.061,50.781],[2.939,50.745],[2.911,50.695],[2.848,50.723],[2.79,50.726],[2.717,50.814],[2.635,50.813],[2.608,50.912],[2.63,50.943],[2.576,51.014],[2.546,51.088],[2.425,51.056],[2.355,51.059],[2.259,51.043],[2.108,51.004],[1.916,50.984],[1.781,50.955],[1.712,50.929],[1.661,50.888],[1.582,50.871],[1.606,50.792],[1.594,50.733],[1.561,50.7],[1.576,50.641],[1.583,50.535],[1.556,50.398],[1.642,50.352]]]}},{"type":"Feature","properties":{"crous_id":3,"crous_slug":"limoges","crous_libelle":"Limoges","crous_nom":"Limoges","departements":["19","23","87"],"credit":"croustillant.menu"},"geometry":{"type":"Polygon","coordinates":[[[2.063,44.977],[2.13,44.984],[2.142,45],[2.095,45.056],[2.157,45.086],[2.208,45.144],[2.195,45.221],[2.241,45.249],[2.271,45.29],[2.318,45.323],[2.352,45.328],[2.369,45.387],[2.398,45.401],[2.486,45.379],[2.507,45.464],[2.515,45.554],[2.461,45.596],[2.483,45.639],[2.517,45.639],[2.529,45.682],[2.509,45.724],[2.435,45.767],[2.388,45.827],[2.431,45.836],[2.448,45.866],[2.492,45.864],[2.529,45.9],[2.594,45.99],[2.603,46.033],[2.572,46.049],[2.547,46.113],[2.56,46.173],[2.529,46.192],[2.516,46.237],[2.476,46.281],[2.392,46.33],[2.336,46.323],[2.303,46.354],[2.281,46.42],[2.146,46.424],[2.074,46.42],[1.993,46.431],[1.827,46.428],[1.798,46.455],[1.727,46.39],[1.684,46.418],[1.645,46.389],[1.595,46.409],[1.546,46.393],[1.522,46.426],[1.465,46.375],[1.409,46.361],[1.356,46.4],[1.303,46.371],[1.22,46.366],[1.177,46.384],[1.128,46.364],[1.067,46.362],[0.988,46.28],[0.902,46.284],[0.802,46.2],[0.836,46.179],[0.813,46.125],[0.835,46.096],[0.814,46.054],[0.925,46.011],[0.944,45.97],[0.921,45.938],[0.877,45.921],[0.812,45.931],[0.827,45.883],[0.801,45.835],[0.708,45.795],[0.691,45.761],[0.63,45.715],[0.67,45.686],[0.742,45.691],[0.776,45.667],[0.752,45.617],[0.775,45.592],[0.843,45.582],[0.939,45.612],[1.023,45.61],[1.047,45.557],[1.08,45.536],[1.13,45.544],[1.167,45.525],[1.118,45.482],[1.21,45.463],[1.275,45.435],[1.257,45.402],[1.325,45.38],[1.316,45.361],[1.242,45.301],[1.228,45.272],[1.275,45.238],[1.234,45.222],[1.292,45.187],[1.255,45.159],[1.413,45.125],[1.385,45.104],[1.4,45.061],[1.448,45.019],[1.54,45.047],[1.648,45.028],[1.751,44.956],[1.775,44.924],[1.824,44.928],[1.914,44.979],[1.952,44.954],[1.986,44.975],[2.063,44.977]]]}},{"type":"Feature","properties":{"crous_id":19,"crous_slug":"lorraine","crous_libelle":"Nancy-Metz","crous_nom":"Lorraine","departements":["54","55","57","88"],"credit":"croustillant.menu"},"geometry":{"type":"Polygon","coordinates":[[[6.846,47.823],[6.92,47.85],[6.897,47.891],[6.929,47.91],[6.919,47.944],[6.961,48],[7.001,48.022],[7.077,48.108],[7.058,48.138],[7.118,48.208],[7.148,48.264],[7.194,48.302],[7.184,48.339],[7.113,48.336],[7.079,48.351],[7.104,48.388],[7.096,48.427],[7.119,48.474],[7.083,48.516],[7.114,48.537],[7.168,48.528],[7.218,48.553],[7.304,48.66],[7.248,48.682],[7.311,48.763],[7.291,48.794],[7.149,48.845],[7.112,48.799],[7.047,48.82],[7.042,48.873],[6.965,48.905],[6.989,48.96],[7.032,48.99],[7.079,49.05],[7.131,49.005],[7.174,49.006],[7.294,48.972],[7.327,48.943],[7.444,48.964],[7.533,48.934],[7.578,48.957],[7.588,48.99],[7.635,49.054],[7.629,49.074],[7.529,49.097],[7.436,49.183],[7.365,49.172],[7.294,49.115],[7.245,49.13],[7.159,49.121],[7.126,49.142],[7.047,49.136],[7.011,49.188],[6.92,49.223],[6.835,49.151],[6.78,49.169],[6.739,49.164],[6.711,49.189],[6.669,49.28],[6.589,49.322],[6.565,49.349],[6.588,49.383],[6.557,49.419],[6.465,49.466],[6.393,49.464],[6.289,49.485],[6.238,49.512],[6.175,49.51],[6.123,49.473],[5.974,49.465],[5.94,49.501],[5.869,49.499],[5.837,49.542],[5.792,49.552],[5.7,49.54],[5.661,49.554],[5.593,49.522],[5.479,49.5],[5.449,49.516],[5.427,49.597],[5.394,49.617],[5.34,49.592],[5.312,49.559],[5.26,49.543],[5.236,49.569],[5.163,49.563],[5.144,49.59],[5.088,49.545],[5.062,49.507],[5.109,49.447],[5.091,49.371],[5.061,49.372],[5.026,49.333],[5.056,49.294],[4.968,49.249],[4.978,49.219],[4.95,49.176],[4.997,49.107],[5.008,49.035],[5.039,49.011],[4.998,48.983],[5.031,48.954],[4.936,48.922],[4.912,48.898],[4.928,48.85],[4.891,48.818],[4.99,48.742],[5.012,48.707],[4.988,48.684],[5.014,48.61],[5.06,48.612],[5.114,48.594],[5.149,48.56],[5.271,48.514],[5.306,48.516],[5.409,48.445],[5.459,48.422],[5.407,48.392],[5.418,48.34],[5.498,48.355],[5.587,48.279],[5.654,48.269],[5.731,48.19],[5.687,48.18],[5.684,48.145],[5.651,48.105],[5.72,48.051],[5.764,48.035],[5.795,47.998],[5.787,47.953],[5.852,47.954],[5.885,47.926],[5.939,47.979],[6.002,47.956],[6.041,48.004],[6.131,48.024],[6.182,47.956],[6.238,47.933],[6.277,47.954],[6.366,47.962],[6.436,47.937],[6.478,47.885],[6.544,47.903],[6.603,47.945],[6.65,47.902],[6.793,47.829],[6.846,47.823]]]}},{"type":"Feature","properties":{"crous_id":17,"crous_slug":"lyon","crous_libelle":"Lyon","crous_nom":"Lyon","departements":["01","42","69"],"credit":"croustillant.menu"},"geometry":{"type":"Polygon","coordinates":[[[6.064,46.416],[5.991,46.365],[5.909,46.284],[5.853,46.262],[5.766,46.268],[5.725,46.261],[5.715,46.309],[5.649,46.341],[5.597,46.297],[5.542,46.27],[5.474,46.264],[5.475,46.315],[5.417,46.345],[5.373,46.352],[5.367,46.389],[5.307,46.415],[5.284,46.446],[5.226,46.468],[5.173,46.513],[5.056,46.484],[5.001,46.512],[4.936,46.514],[4.892,46.44],[4.888,46.403],[4.851,46.356],[4.853,46.33],[4.811,46.26],[4.78,46.177],[4.727,46.179],[4.71,46.279],[4.679,46.306],[4.635,46.299],[4.619,46.265],[4.573,46.276],[4.504,46.267],[4.427,46.303],[4.398,46.283],[4.389,46.213],[4.346,46.188],[4.25,46.158],[4.256,46.186],[4.133,46.177],[4.104,46.198],[4.028,46.169],[3.986,46.171],[3.973,46.203],[3.918,46.203],[3.9,46.276],[3.807,46.257],[3.77,46.232],[3.797,46.207],[3.796,46.112],[3.822,46.088],[3.807,46.046],[3.824,45.987],[3.736,45.967],[3.694,45.931],[3.754,45.886],[3.728,45.855],[3.732,45.775],[3.783,45.707],[3.78,45.689],[3.823,45.632],[3.935,45.578],[3.965,45.503],[3.963,45.435],[3.914,45.422],[3.889,45.395],[3.937,45.372],[3.986,45.372],[4.015,45.333],[4.178,45.393],[4.235,45.389],[4.275,45.358],[4.335,45.368],[4.366,45.339],[4.371,45.261],[4.434,45.275],[4.483,45.236],[4.607,45.255],[4.599,45.289],[4.68,45.346],[4.756,45.366],[4.742,45.418],[4.755,45.453],[4.868,45.523],[4.814,45.569],[4.901,45.606],[4.971,45.613],[5.035,45.637],[5.054,45.66],[5.131,45.708],[5.095,45.739],[5.096,45.803],[5.126,45.811],[5.221,45.768],[5.267,45.789],[5.302,45.848],[5.351,45.884],[5.401,45.859],[5.421,45.809],[5.483,45.755],[5.546,45.714],[5.545,45.687],[5.586,45.667],[5.624,45.613],[5.689,45.649],[5.701,45.702],[5.757,45.709],[5.784,45.744],[5.787,45.809],[5.829,45.909],[5.834,45.972],[5.81,45.99],[5.811,46.078],[5.832,46.106],[5.883,46.085],[5.894,46.119],[5.956,46.132],[5.995,46.183],[5.964,46.197],[6.034,46.238],[6.124,46.251],[6.102,46.285],[6.17,46.366],[6.098,46.409],[6.064,46.416]]]}},{"type":"Feature","properties":{"crous_id":18,"crous_slug":"montpellier-occitanie","crous_libelle":"Montpellier","crous_nom":"Montpellier-Occitanie","departements":["11","30","34","48","66"],"credit":"croustillant.menu"},"geometry":{"type":"Polygon","coordinates":[[[1.786,42.574],[1.735,42.549],[1.726,42.504],[1.805,42.49],[1.943,42.444],[1.972,42.374],[2.012,42.353],[2.059,42.358],[2.113,42.381],[2.129,42.412],[2.207,42.417],[2.257,42.438],[2.314,42.428],[2.349,42.407],[2.413,42.391],[2.481,42.341],[2.542,42.334],[2.578,42.358],[2.675,42.342],[2.656,42.388],[2.717,42.421],[2.799,42.419],[2.84,42.459],[2.918,42.456],[2.949,42.479],[3.047,42.457],[3.086,42.425],[3.174,42.436],[3.138,42.515],[3.058,42.536],[3.035,42.642],[3.043,42.836],[3.06,42.916],[3.04,42.93],[3.064,43.019],[3.117,43.102],[3.17,43.159],[3.266,43.231],[3.351,43.273],[3.43,43.29],[3.51,43.272],[3.603,43.355],[3.665,43.393],[3.797,43.441],[3.851,43.486],[3.934,43.528],[4.007,43.552],[4.101,43.554],[4.139,43.532],[4.117,43.508],[4.166,43.472],[4.23,43.46],[4.24,43.499],[4.296,43.515],[4.401,43.56],[4.427,43.621],[4.487,43.699],[4.537,43.708],[4.593,43.687],[4.651,43.782],[4.642,43.867],[4.692,43.884],[4.75,43.932],[4.815,43.968],[4.843,44.01],[4.755,44.088],[4.707,44.104],[4.722,44.187],[4.649,44.27],[4.559,44.302],[4.504,44.34],[4.451,44.333],[4.44,44.283],[4.39,44.301],[4.391,44.347],[4.336,44.34],[4.291,44.309],[4.258,44.265],[4.14,44.328],[4.094,44.335],[4.04,44.391],[4.046,44.433],[3.997,44.46],[3.988,44.504],[3.949,44.573],[3.894,44.616],[3.898,44.643],[3.862,44.712],[3.863,44.744],[3.835,44.748],[3.735,44.833],[3.666,44.829],[3.658,44.872],[3.63,44.881],[3.587,44.838],[3.506,44.824],[3.455,44.832],[3.418,44.901],[3.415,44.942],[3.371,44.96],[3.286,44.926],[3.243,44.932],[3.236,44.888],[3.182,44.864],[3.141,44.903],[3.103,44.885],[3.085,44.833],[3.046,44.798],[3.031,44.749],[2.982,44.645],[3.084,44.56],[3.068,44.503],[3.135,44.454],[3.14,44.392],[3.12,44.363],[3.154,44.308],[3.161,44.245],[3.224,44.23],[3.212,44.195],[3.357,44.198],[3.323,44.11],[3.352,44.05],[3.39,44.058],[3.443,44.025],[3.439,43.998],[3.377,43.967],[3.357,43.912],[3.319,43.891],[3.275,43.898],[3.234,43.858],[3.249,43.83],[3.207,43.812],[3.124,43.818],[3.065,43.836],[3.05,43.799],[3.068,43.757],[3.055,43.715],[3.021,43.695],[2.985,43.709],[2.919,43.688],[2.907,43.654],[2.816,43.64],[2.755,43.614],[2.723,43.644],[2.657,43.651],[2.615,43.6],[2.616,43.567],[2.655,43.527],[2.655,43.467],[2.582,43.424],[2.497,43.437],[2.429,43.436],[2.402,43.417],[2.311,43.442],[2.245,43.448],[2.221,43.427],[2.109,43.395],[2.075,43.395],[2.053,43.43],[1.988,43.408],[1.956,43.425],[1.915,43.401],[1.859,43.444],[1.816,43.405],[1.804,43.358],[1.724,43.33],[1.692,43.27],[1.724,43.225],[1.713,43.186],[1.783,43.156],[1.88,43.141],[1.949,43.121],[1.943,43.051],[1.985,43.033],[1.981,42.93],[1.987,42.871],[1.946,42.856],[1.876,42.853],[1.894,42.81],[1.949,42.738],[2.008,42.734],[2.056,42.756],[2.176,42.683],[2.028,42.653],[1.997,42.66],[1.972,42.617],[1.907,42.609],[1.86,42.584],[1.786,42.574]]]}},{"type":"Feature","properties":{"crous_id":27,"crous_slug":"nantes-pays-de-la-loire","crous_libelle":"Nantes","crous_nom":"Nantes Pays de la Loire","departements":["44","49","53","72","85"],"credit":"croustillant.menu"},"geometry":{"type":"MultiPolygon","coordinates":[[[[-1.129,46.31],[-1.078,46.317],[-1.014,46.356],[-0.975,46.351],[-0.919,46.313],[-0.807,46.339],[-0.747,46.303],[-0.697,46.325],[-0.648,46.317],[-0.603,46.361],[-0.562,46.36],[-0.538,46.386],[-0.637,46.432],[-0.608,46.455],[-0.642,46.525],[-0.602,46.533],[-0.615,46.623],[-0.656,46.701],[-0.727,46.766],[-0.707,46.819],[-0.767,46.834],[-0.816,46.881],[-0.828,46.927],[-0.881,46.946],[-0.88,46.97],[-0.788,47.005],[-0.762,46.992],[-0.633,46.997],[-0.565,47.019],[-0.56,47.062],[-0.494,47.083],[-0.409,47.066],[-0.386,47.087],[-0.283,47.103],[-0.202,47.096],[-0.179,47.07],[-0.102,47.065],[-0.086,47.101],[-0.036,47.125],[0.019,47.176],[0.054,47.164],[0.068,47.247],[0.117,47.332],[0.138,47.336],[0.185,47.425],[0.181,47.453],[0.22,47.502],[0.2,47.541],[0.234,47.58],[0.232,47.606],[0.322,47.595],[0.378,47.569],[0.394,47.594],[0.457,47.639],[0.597,47.673],[0.593,47.704],[0.621,47.748],[0.726,47.799],[0.775,47.844],[0.761,47.9],[0.813,47.914],[0.849,47.943],[0.819,47.986],[0.803,48.072],[0.843,48.073],[0.852,48.132],[0.84,48.166],[0.798,48.194],[0.738,48.189],[0.683,48.255],[0.561,48.246],[0.513,48.267],[0.466,48.306],[0.406,48.315],[0.383,48.334],[0.354,48.459],[0.301,48.48],[0.213,48.474],[0.145,48.453],[0.1,48.41],[0.021,48.38],[-0.002,48.397],[-0.058,48.387],[-0.051,48.453],[-0.144,48.455],[-0.145,48.528],[-0.212,48.563],[-0.271,48.519],[-0.32,48.523],[-0.355,48.493],[-0.434,48.514],[-0.51,48.509],[-0.55,48.474],[-0.702,48.467],[-0.76,48.436],[-0.778,48.465],[-0.846,48.497],[-0.896,48.495],[-0.947,48.514],[-1.004,48.489],[-1.07,48.508],[-1.064,48.467],[-1.084,48.434],[-1.053,48.381],[-1.045,48.328],[-1.101,48.266],[-1.075,48.202],[-1.05,48.09],[-1.022,48.068],[-1.035,48.034],[-1.023,47.994],[-1.108,47.989],[-1.156,47.964],[-1.189,47.867],[-1.214,47.845],[-1.246,47.777],[-1.365,47.799],[-1.389,47.828],[-1.461,47.835],[-1.473,47.802],[-1.62,47.764],[-1.669,47.713],[-1.772,47.698],[-1.864,47.707],[-1.94,47.685],[-2.039,47.67],[-2.097,47.631],[-2.099,47.534],[-2.216,47.508],[-2.244,47.494],[-2.296,47.515],[-2.312,47.465],[-2.458,47.448],[-2.468,47.418],[-2.537,47.382],[-2.505,47.314],[-2.546,47.291],[-2.441,47.26],[-2.398,47.281],[-2.359,47.273],[-2.298,47.234],[-2.187,47.281],[-2.16,47.211],[-2.167,47.166],[-2.226,47.152],[-2.221,47.126],[-2.052,47.094],[-1.98,47.027],[-2.029,47.01],[-2.058,46.951],[-2.155,46.89],[-2.142,46.819],[-2.062,46.777],[-1.943,46.693],[-1.857,46.61],[-1.812,46.493],[-1.668,46.438],[-1.653,46.422],[-1.515,46.404],[-1.466,46.342],[-1.358,46.348],[-1.221,46.273],[-1.163,46.324],[-1.129,46.31]]],[[[-2.298,46.705],[-2.374,46.734],[-2.399,46.716],[-2.328,46.687],[-2.298,46.705]]],[[[-2.219,46.964],[-2.218,47.008],[-2.277,47.029],[-2.301,46.989],[-2.264,46.961],[-2.219,46.964]]]]}},{"type":"Feature","properties":{"crous_id":31,"crous_slug":"normandie","crous_libelle":"Normandie","crous_nom":"Normandie","departements":["14","27","50","61","76"],"credit":"croustillant.menu"},"geometry":{"type":"Polygon","coordinates":[[[-1.07,48.508],[-1.004,48.489],[-0.947,48.514],[-0.896,48.495],[-0.846,48.497],[-0.778,48.465],[-0.76,48.436],[-0.702,48.467],[-0.55,48.474],[-0.51,48.509],[-0.434,48.514],[-0.355,48.493],[-0.32,48.523],[-0.271,48.519],[-0.212,48.563],[-0.145,48.528],[-0.144,48.455],[-0.051,48.453],[-0.058,48.387],[-0.002,48.397],[0.021,48.38],[0.1,48.41],[0.145,48.453],[0.213,48.474],[0.301,48.48],[0.354,48.459],[0.383,48.334],[0.406,48.315],[0.466,48.306],[0.513,48.267],[0.561,48.246],[0.683,48.255],[0.738,48.189],[0.798,48.194],[0.83,48.214],[0.786,48.271],[0.769,48.313],[0.785,48.34],[0.884,48.357],[0.944,48.4],[0.958,48.443],[0.939,48.461],[0.967,48.523],[0.939,48.551],[0.85,48.584],[0.82,48.61],[0.809,48.665],[0.869,48.699],[0.961,48.726],[1.017,48.728],[1.163,48.769],[1.297,48.768],[1.377,48.789],[1.356,48.816],[1.406,48.861],[1.461,48.872],[1.461,48.938],[1.502,48.941],[1.498,48.979],[1.446,49.046],[1.51,49.067],[1.623,49.086],[1.658,49.132],[1.675,49.211],[1.704,49.232],[1.709,49.264],[1.79,49.254],[1.803,49.272],[1.767,49.32],[1.761,49.366],[1.714,49.407],[1.723,49.435],[1.776,49.471],[1.716,49.506],[1.748,49.538],[1.701,49.599],[1.721,49.625],[1.715,49.709],[1.739,49.749],[1.785,49.758],[1.737,49.808],[1.712,49.874],[1.678,49.918],[1.595,49.949],[1.518,50.01],[1.455,50.038],[1.449,50.069],[1.382,50.066],[1.332,50.047],[1.206,49.974],[1.107,49.937],[1.02,49.916],[0.932,49.908],[0.791,49.876],[0.71,49.873],[0.573,49.85],[0.324,49.742],[0.206,49.714],[0.164,49.686],[0.155,49.649],[0.069,49.525],[0.121,49.463],[0.341,49.434],[0.224,49.428],[0.112,49.395],[-0.001,49.326],[-0.132,49.291],[-0.226,49.282],[-0.303,49.298],[-0.415,49.336],[-0.553,49.346],[-0.599,49.34],[-0.724,49.347],[-0.843,49.361],[-0.924,49.392],[-1.07,49.39],[-1.118,49.361],[-1.253,49.481],[-1.31,49.549],[-1.304,49.573],[-1.228,49.623],[-1.277,49.695],[-1.371,49.707],[-1.436,49.7],[-1.522,49.657],[-1.623,49.645],[-1.722,49.68],[-1.827,49.693],[-1.859,49.717],[-1.942,49.726],[-1.947,49.675],[-1.86,49.65],[-1.841,49.575],[-1.887,49.526],[-1.851,49.509],[-1.827,49.453],[-1.824,49.401],[-1.711,49.325],[-1.64,49.221],[-1.607,49.197],[-1.593,49.136],[-1.609,49.077],[-1.594,49.023],[-1.561,49.001],[-1.576,48.866],[-1.602,48.837],[-1.569,48.806],[-1.575,48.753],[-1.529,48.73],[-1.508,48.691],[-1.388,48.644],[-1.479,48.618],[-1.571,48.626],[-1.519,48.567],[-1.534,48.55],[-1.495,48.507],[-1.428,48.462],[-1.38,48.456],[-1.328,48.498],[-1.278,48.51],[-1.272,48.534],[-1.17,48.531],[-1.07,48.508]]]}},{"type":"Feature","properties":{"crous_id":20,"crous_slug":"nice-toulon","crous_libelle":"Nice","crous_nom":"Nice Toulon","departements":["06","83"],"credit":"croustillant.menu"},"geometry":{"type":"Polygon","coordinates":[[[6.887,44.361],[6.796,44.316],[6.787,44.273],[6.724,44.25],[6.716,44.205],[6.688,44.169],[6.708,44.124],[6.755,44.079],[6.746,44.043],[6.838,43.989],[6.848,43.954],[6.913,43.928],[6.943,43.903],[6.885,43.889],[6.853,43.915],[6.799,43.91],[6.748,43.872],[6.694,43.877],[6.642,43.795],[6.587,43.805],[6.547,43.783],[6.525,43.806],[6.424,43.79],[6.384,43.734],[6.326,43.747],[6.263,43.782],[6.209,43.797],[6.169,43.751],[6.109,43.746],[6.078,43.711],[6.035,43.694],[5.94,43.727],[5.855,43.723],[5.833,43.746],[5.781,43.756],[5.754,43.725],[5.804,43.68],[5.798,43.661],[5.702,43.64],[5.681,43.611],[5.715,43.551],[5.699,43.485],[5.751,43.435],[5.75,43.402],[5.696,43.407],[5.686,43.34],[5.727,43.317],[5.761,43.267],[5.684,43.236],[5.672,43.179],[5.695,43.144],[5.781,43.13],[5.814,43.107],[5.804,43.077],[5.859,43.048],[5.899,43.113],[6.005,43.104],[6.051,43.079],[6.086,43.087],[6.155,43.08],[6.201,43.116],[6.262,43.121],[6.359,43.089],[6.369,43.137],[6.464,43.158],[6.497,43.151],[6.562,43.189],[6.641,43.175],[6.664,43.212],[6.679,43.279],[6.593,43.262],[6.584,43.277],[6.717,43.348],[6.733,43.405],[6.852,43.411],[6.918,43.448],[6.938,43.516],[6.972,43.545],[7.04,43.541],[7.084,43.57],[7.122,43.56],[7.13,43.618],[7.168,43.657],[7.225,43.659],[7.248,43.691],[7.32,43.691],[7.361,43.722],[7.406,43.719],[7.431,43.749],[7.53,43.788],[7.495,43.864],[7.563,43.902],[7.567,43.943],[7.631,43.964],[7.67,43.998],[7.662,44.028],[7.7,44.041],[7.716,44.081],[7.667,44.133],[7.685,44.174],[7.637,44.177],[7.62,44.15],[7.507,44.144],[7.461,44.126],[7.357,44.117],[7.342,44.146],[7.281,44.141],[7.219,44.168],[7.163,44.208],[7.144,44.2],[7.07,44.233],[7.009,44.235],[6.996,44.28],[6.956,44.297],[6.923,44.351],[6.887,44.361]]]}},{"type":"Feature","properties":{"crous_id":21,"crous_slug":"orleans-tours","crous_libelle":"Orléans-Tours","crous_nom":"Orléans Tours","departements":["18","28","36","37","41","45"],"credit":"croustillant.menu"},"geometry":{"type":"Polygon","coordinates":[[[3.032,46.795],[3.059,46.826],[3.067,46.882],[3.05,46.911],[3.079,46.955],[3.063,46.979],[3.075,47.029],[3.023,47.063],[3.021,47.153],[2.978,47.236],[2.983,47.261],[2.87,47.34],[2.932,47.439],[2.888,47.509],[2.849,47.538],[2.964,47.582],[2.936,47.599],[2.914,47.691],[2.849,47.726],[2.87,47.765],[2.931,47.762],[3.024,47.786],[3.015,47.833],[3.032,47.85],[3.01,47.905],[3.05,47.911],[3.128,47.971],[3.124,48.007],[3.08,48.06],[3.05,48.072],[3.029,48.133],[2.936,48.163],[2.867,48.156],[2.801,48.131],[2.794,48.169],[2.704,48.124],[2.64,48.139],[2.46,48.137],[2.523,48.195],[2.469,48.255],[2.424,48.26],[2.403,48.321],[2.296,48.308],[2.207,48.342],[2.181,48.312],[2.041,48.284],[1.973,48.288],[1.959,48.309],[1.987,48.362],[1.941,48.425],[1.872,48.44],[1.786,48.49],[1.787,48.554],[1.702,48.585],[1.601,48.668],[1.577,48.703],[1.627,48.748],[1.575,48.791],[1.591,48.815],[1.559,48.864],[1.538,48.923],[1.502,48.941],[1.461,48.938],[1.461,48.872],[1.406,48.861],[1.356,48.816],[1.377,48.789],[1.297,48.768],[1.163,48.769],[1.017,48.728],[0.961,48.726],[0.869,48.699],[0.809,48.665],[0.82,48.61],[0.85,48.584],[0.939,48.551],[0.967,48.523],[0.939,48.461],[0.958,48.443],[0.944,48.4],[0.884,48.357],[0.785,48.34],[0.769,48.313],[0.786,48.271],[0.83,48.214],[0.798,48.194],[0.84,48.166],[0.852,48.132],[0.843,48.073],[0.803,48.072],[0.819,47.986],[0.849,47.943],[0.813,47.914],[0.761,47.9],[0.775,47.844],[0.726,47.799],[0.621,47.748],[0.593,47.704],[0.597,47.673],[0.457,47.639],[0.394,47.594],[0.378,47.569],[0.322,47.595],[0.232,47.606],[0.234,47.58],[0.2,47.541],[0.22,47.502],[0.181,47.453],[0.185,47.425],[0.138,47.336],[0.117,47.332],[0.068,47.247],[0.054,47.164],[0.076,47.124],[0.201,47.091],[0.298,47.054],[0.311,46.938],[0.367,46.95],[0.439,46.93],[0.487,46.954],[0.598,46.957],[0.576,47.005],[0.693,46.974],[0.704,46.903],[0.809,46.828],[0.816,46.788],[0.913,46.726],[0.894,46.629],[0.916,46.597],[0.989,46.565],[1.023,46.536],[1.104,46.533],[1.146,46.506],[1.152,46.449],[1.213,46.432],[1.177,46.384],[1.22,46.366],[1.303,46.371],[1.356,46.4],[1.409,46.361],[1.465,46.375],[1.522,46.426],[1.546,46.393],[1.595,46.409],[1.645,46.389],[1.684,46.418],[1.727,46.39],[1.798,46.455],[1.827,46.428],[1.993,46.431],[2.074,46.42],[2.146,46.424],[2.281,46.42],[2.305,46.475],[2.368,46.518],[2.45,46.521],[2.483,46.533],[2.537,46.52],[2.615,46.553],[2.576,46.611],[2.629,46.66],[2.645,46.69],[2.705,46.739],[2.786,46.723],[2.827,46.735],[2.961,46.804],[3.032,46.795]]]}},{"type":"Feature","properties":{"crous_id":22,"crous_slug":"paris","crous_libelle":"Paris","crous_nom":"Paris","departements":["75"],"credit":"croustillant.menu"},"geometry":{"type":"Polygon","coordinates":[[[2.332,48.817],[2.402,48.83],[2.414,48.871],[2.385,48.902],[2.32,48.9],[2.232,48.869],[2.224,48.854],[2.332,48.817]]]}},{"type":"Feature","properties":{"crous_id":2,"crous_slug":"poitiers","crous_libelle":"Poitiers","crous_nom":"Poitiers","departements":["16","17","79","86"],"credit":"croustillant.menu"},"geometry":{"type":"MultiPolygon","coordinates":[[[[0.63,45.715],[0.691,45.761],[0.708,45.795],[0.801,45.835],[0.827,45.883],[0.812,45.931],[0.877,45.921],[0.921,45.938],[0.944,45.97],[0.925,46.011],[0.814,46.054],[0.835,46.096],[0.813,46.125],[0.836,46.179],[0.802,46.2],[0.902,46.284],[0.988,46.28],[1.067,46.362],[1.128,46.364],[1.177,46.384],[1.213,46.432],[1.152,46.449],[1.146,46.506],[1.104,46.533],[1.023,46.536],[0.989,46.565],[0.916,46.597],[0.894,46.629],[0.913,46.726],[0.816,46.788],[0.809,46.828],[0.704,46.903],[0.693,46.974],[0.576,47.005],[0.598,46.957],[0.487,46.954],[0.439,46.93],[0.367,46.95],[0.311,46.938],[0.298,47.054],[0.201,47.091],[0.076,47.124],[0.054,47.164],[0.019,47.176],[-0.036,47.125],[-0.086,47.101],[-0.102,47.065],[-0.179,47.07],[-0.202,47.096],[-0.283,47.103],[-0.386,47.087],[-0.409,47.066],[-0.494,47.083],[-0.56,47.062],[-0.565,47.019],[-0.633,46.997],[-0.762,46.992],[-0.788,47.005],[-0.88,46.97],[-0.881,46.946],[-0.828,46.927],[-0.816,46.881],[-0.767,46.834],[-0.707,46.819],[-0.727,46.766],[-0.656,46.701],[-0.615,46.623],[-0.602,46.533],[-0.642,46.525],[-0.608,46.455],[-0.637,46.432],[-0.538,46.386],[-0.562,46.36],[-0.603,46.361],[-0.648,46.317],[-0.697,46.325],[-0.747,46.303],[-0.807,46.339],[-0.919,46.313],[-0.975,46.351],[-1.014,46.356],[-1.078,46.317],[-1.129,46.31],[-1.111,46.261],[-1.175,46.222],[-1.224,46.166],[-1.101,46.094],[-1.089,46.054],[-1.053,46.011],[-1.096,45.984],[-1.064,45.95],[-1.074,45.914],[-1.121,45.856],[-1.164,45.851],[-1.132,45.805],[-1.243,45.782],[-1.237,45.706],[-1.115,45.647],[-0.994,45.598],[-1.026,45.575],[-0.841,45.435],[-0.774,45.369],[-0.753,45.322],[-0.723,45.327],[-0.594,45.321],[-0.57,45.299],[-0.482,45.294],[-0.425,45.279],[-0.408,45.246],[-0.418,45.204],[-0.364,45.17],[-0.275,45.141],[-0.247,45.109],[-0.142,45.09],[-0.098,45.121],[-0.064,45.099],[0.004,45.152],[-0.017,45.17],[0.053,45.227],[0.131,45.208],[0.203,45.262],[0.22,45.289],[0.27,45.305],[0.248,45.369],[0.275,45.426],[0.432,45.5],[0.506,45.554],[0.503,45.611],[0.575,45.641],[0.63,45.715]]],[[[-1.259,45.868],[-1.236,45.805],[-1.195,45.829],[-1.189,45.887],[-1.234,45.927],[-1.247,45.99],[-1.387,45.997],[-1.389,45.958],[-1.341,45.919],[-1.293,45.9],[-1.259,45.868]]],[[[-1.479,46.215],[-1.514,46.258],[-1.561,46.237],[-1.535,46.203],[-1.462,46.202],[-1.353,46.155],[-1.305,46.143],[-1.293,46.187],[-1.355,46.206],[-1.479,46.215]]]]}},{"type":"Feature","properties":{"crous_id":23,"crous_slug":"reims","crous_libelle":"Reims","crous_nom":"Reims","departements":["08","10","51","52"],"credit":"croustillant.menu"},"geometry":{"type":"Polygon","coordinates":[[[5.885,47.926],[5.852,47.954],[5.787,47.953],[5.795,47.998],[5.764,48.035],[5.72,48.051],[5.651,48.105],[5.684,48.145],[5.687,48.18],[5.731,48.19],[5.654,48.269],[5.587,48.279],[5.498,48.355],[5.418,48.34],[5.407,48.392],[5.459,48.422],[5.409,48.445],[5.306,48.516],[5.271,48.514],[5.149,48.56],[5.114,48.594],[5.06,48.612],[5.014,48.61],[4.988,48.684],[5.012,48.707],[4.99,48.742],[4.891,48.818],[4.928,48.85],[4.912,48.898],[4.936,48.922],[5.031,48.954],[4.998,48.983],[5.039,49.011],[5.008,49.035],[4.997,49.107],[4.95,49.176],[4.978,49.219],[4.968,49.249],[5.056,49.294],[5.026,49.333],[5.061,49.372],[5.091,49.371],[5.109,49.447],[5.062,49.507],[5.088,49.545],[5.144,49.59],[5.163,49.563],[5.236,49.569],[5.26,49.543],[5.312,49.559],[5.34,49.592],[5.394,49.617],[5.352,49.631],[5.271,49.695],[5.166,49.693],[5.072,49.761],[4.957,49.802],[4.906,49.785],[4.86,49.797],[4.852,49.854],[4.89,49.909],[4.85,49.946],[4.791,49.958],[4.841,50.044],[4.851,50.101],[4.897,50.138],[4.824,50.161],[4.702,50.096],[4.688,50.001],[4.582,49.984],[4.51,49.947],[4.447,49.938],[4.35,49.952],[4.309,49.97],[4.233,49.958],[4.217,49.914],[4.256,49.903],[4.249,49.857],[4.214,49.806],[4.247,49.755],[4.179,49.698],[4.127,49.678],[4.126,49.651],[4.025,49.623],[4.059,49.593],[4.077,49.525],[4.041,49.509],[4.036,49.36],[3.961,49.377],[3.931,49.401],[3.87,49.407],[3.853,49.345],[3.802,49.359],[3.644,49.313],[3.655,49.263],[3.704,49.181],[3.749,49.157],[3.622,49.151],[3.612,49.118],[3.639,49.081],[3.588,49.059],[3.588,49.034],[3.664,49.037],[3.621,48.966],[3.529,48.912],[3.485,48.852],[3.485,48.825],[3.441,48.812],[3.434,48.781],[3.396,48.759],[3.47,48.738],[3.474,48.689],[3.443,48.673],[3.503,48.605],[3.466,48.57],[3.486,48.545],[3.414,48.533],[3.435,48.49],[3.389,48.477],[3.415,48.39],[3.498,48.37],[3.544,48.32],[3.617,48.271],[3.622,48.226],[3.668,48.139],[3.705,48.144],[3.78,48.121],[3.826,48.064],[3.824,48.043],[3.902,47.995],[3.926,47.935],[4.11,47.926],[4.166,47.96],[4.245,47.93],[4.293,47.926],[4.343,47.956],[4.418,47.968],[4.439,47.958],[4.554,47.967],[4.549,48.004],[4.579,48.029],[4.673,48.015],[4.789,48.008],[4.787,47.964],[4.845,47.961],[4.903,47.921],[4.954,47.867],[4.982,47.8],[4.959,47.762],[4.954,47.701],[5.013,47.706],[5.086,47.657],[5.174,47.653],[5.237,47.621],[5.257,47.577],[5.306,47.607],[5.345,47.605],[5.4,47.648],[5.406,47.673],[5.53,47.673],[5.691,47.685],[5.684,47.712],[5.71,47.745],[5.68,47.77],[5.682,47.809],[5.736,47.818],[5.744,47.849],[5.816,47.849],[5.851,47.906],[5.885,47.926]]]}},{"type":"Feature","properties":{"crous_id":24,"crous_slug":"rennes-bretagne","crous_libelle":"Rennes","crous_nom":"Rennes Bretagne","departements":["22","29","35","56"],"credit":"croustillant.menu"},"geometry":{"type":"MultiPolygon","coordinates":[[[[-1.571,48.626],[-1.664,48.61],[-1.774,48.603],[-1.843,48.615],[-1.872,48.647],[-1.837,48.679],[-1.85,48.699],[-1.986,48.681],[-2.025,48.637],[-2.133,48.636],[-2.161,48.587],[-2.214,48.593],[-2.286,48.668],[-2.332,48.671],[-2.396,48.643],[-2.468,48.65],[-2.493,48.61],[-2.548,48.598],[-2.641,48.523],[-2.721,48.531],[-2.725,48.547],[-2.824,48.597],[-2.828,48.656],[-2.945,48.721],[-2.932,48.753],[-3.017,48.768],[-3.014,48.822],[-3.066,48.822],[-3.112,48.867],[-3.203,48.835],[-3.258,48.84],[-3.389,48.816],[-3.398,48.801],[-3.491,48.828],[-3.541,48.823],[-3.585,48.77],[-3.55,48.747],[-3.584,48.719],[-3.567,48.683],[-3.613,48.672],[-3.701,48.69],[-3.734,48.709],[-3.813,48.713],[-3.854,48.689],[-3.846,48.627],[-3.95,48.653],[-3.965,48.722],[-4.057,48.701],[-4.181,48.684],[-4.238,48.651],[-4.35,48.677],[-4.433,48.652],[-4.476,48.624],[-4.559,48.623],[-4.612,48.573],[-4.684,48.572],[-4.746,48.546],[-4.778,48.505],[-4.765,48.467],[-4.795,48.415],[-4.76,48.375],[-4.774,48.33],[-4.723,48.33],[-4.681,48.356],[-4.628,48.338],[-4.538,48.357],[-4.501,48.378],[-4.405,48.324],[-4.363,48.347],[-4.302,48.344],[-4.311,48.317],[-4.241,48.306],[-4.262,48.279],[-4.307,48.298],[-4.41,48.276],[-4.459,48.293],[-4.501,48.282],[-4.553,48.294],[-4.618,48.267],[-4.564,48.232],[-4.527,48.186],[-4.502,48.23],[-4.448,48.236],[-4.303,48.194],[-4.27,48.135],[-4.307,48.089],[-4.362,48.109],[-4.413,48.107],[-4.489,48.086],[-4.536,48.089],[-4.622,48.069],[-4.713,48.06],[-4.699,48.027],[-4.549,48.012],[-4.451,47.981],[-4.392,47.932],[-4.363,47.887],[-4.349,47.832],[-4.374,47.798],[-4.268,47.79],[-4.176,47.805],[-4.164,47.849],[-4.069,47.864],[-4.04,47.845],[-3.98,47.854],[-3.96,47.897],[-3.903,47.86],[-3.894,47.833],[-3.84,47.796],[-3.76,47.791],[-3.735,47.804],[-3.687,47.78],[-3.529,47.765],[-3.453,47.695],[-3.425,47.705],[-3.292,47.703],[-3.158,47.607],[-3.123,47.57],[-3.043,47.579],[-2.968,47.557],[-2.848,47.618],[-2.778,47.619],[-2.69,47.59],[-2.731,47.542],[-2.786,47.547],[-2.875,47.534],[-2.815,47.487],[-2.725,47.506],[-2.683,47.495],[-2.616,47.545],[-2.556,47.513],[-2.521,47.527],[-2.442,47.499],[-2.499,47.457],[-2.458,47.448],[-2.312,47.465],[-2.296,47.515],[-2.244,47.494],[-2.216,47.508],[-2.099,47.534],[-2.097,47.631],[-2.039,47.67],[-1.94,47.685],[-1.864,47.707],[-1.772,47.698],[-1.669,47.713],[-1.62,47.764],[-1.473,47.802],[-1.461,47.835],[-1.389,47.828],[-1.365,47.799],[-1.246,47.777],[-1.214,47.845],[-1.189,47.867],[-1.156,47.964],[-1.108,47.989],[-1.023,47.994],[-1.035,48.034],[-1.022,48.068],[-1.05,48.09],[-1.075,48.202],[-1.101,48.266],[-1.045,48.328],[-1.053,48.381],[-1.084,48.434],[-1.064,48.467],[-1.07,48.508],[-1.17,48.531],[-1.272,48.534],[-1.278,48.51],[-1.328,48.498],[-1.38,48.456],[-1.428,48.462],[-1.495,48.507],[-1.534,48.55],[-1.519,48.567],[-1.571,48.626]]],[[[-3.248,47.333],[-3.218,47.292],[-3.174,47.302],[-3.076,47.286],[-3.065,47.307],[-3.146,47.335],[-3.16,47.362],[-3.235,47.379],[-3.248,47.333]]]]}},{"type":"Feature","properties":{"crous_id":29,"crous_slug":"la-reunion-mayotte","crous_libelle":"La Réunion","crous_nom":"La Réunion Mayotte","departements":["974","976"],"credit":"croustillant.menu"},"geometry":{"type":"MultiPolygon","coordinates":[[[[45.1,-12.799],[45.1,-12.807],[45.106,-12.819],[45.101,-12.834],[45.103,-12.844],[45.095,-12.854],[45.104,-12.863],[45.111,-12.864],[45.119,-12.877],[45.137,-12.89],[45.146,-12.901],[45.154,-12.925],[45.145,-12.936],[45.132,-12.936],[45.124,-12.929],[45.106,-12.923],[45.099,-12.899],[45.085,-12.898],[45.077,-12.905],[45.083,-12.922],[45.089,-12.928],[45.098,-12.925],[45.104,-12.933],[45.1,-12.947],[45.083,-12.961],[45.092,-12.967],[45.105,-12.958],[45.111,-12.96],[45.107,-12.975],[45.108,-12.983],[45.125,-12.983],[45.142,-13],[45.15,-12.999],[45.158,-12.989],[45.158,-12.977],[45.166,-12.975],[45.174,-12.984],[45.194,-12.987],[45.204,-12.974],[45.192,-12.974],[45.178,-12.966],[45.169,-12.95],[45.18,-12.926],[45.188,-12.916],[45.198,-12.896],[45.217,-12.886],[45.219,-12.871],[45.203,-12.863],[45.194,-12.845],[45.196,-12.823],[45.203,-12.82],[45.204,-12.809],[45.216,-12.796],[45.234,-12.783],[45.227,-12.774],[45.237,-12.76],[45.226,-12.744],[45.213,-12.741],[45.204,-12.73],[45.179,-12.73],[45.164,-12.72],[45.162,-12.731],[45.151,-12.729],[45.131,-12.731],[45.126,-12.701],[45.114,-12.695],[45.112,-12.686],[45.104,-12.677],[45.09,-12.672],[45.073,-12.686],[45.066,-12.7],[45.052,-12.707],[45.045,-12.723],[45.058,-12.728],[45.043,-12.744],[45.047,-12.751],[45.06,-12.751],[45.075,-12.765],[45.099,-12.765],[45.103,-12.773],[45.097,-12.787],[45.1,-12.799]]],[[[55.246,-21.102],[55.271,-21.135],[55.273,-21.15],[55.287,-21.161],[55.287,-21.183],[55.281,-21.202],[55.285,-21.207],[55.293,-21.23],[55.311,-21.24],[55.329,-21.257],[55.341,-21.282],[55.378,-21.287],[55.397,-21.296],[55.417,-21.32],[55.43,-21.326],[55.449,-21.328],[55.46,-21.341],[55.478,-21.344],[55.484,-21.35],[55.501,-21.351],[55.524,-21.361],[55.537,-21.363],[55.55,-21.371],[55.572,-21.376],[55.587,-21.372],[55.609,-21.387],[55.626,-21.383],[55.638,-21.383],[55.645,-21.389],[55.659,-21.383],[55.671,-21.384],[55.682,-21.375],[55.709,-21.377],[55.727,-21.37],[55.743,-21.369],[55.756,-21.363],[55.776,-21.364],[55.799,-21.348],[55.807,-21.337],[55.804,-21.31],[55.808,-21.287],[55.804,-21.279],[55.802,-21.26],[55.808,-21.239],[55.809,-21.228],[55.814,-21.214],[55.825,-21.203],[55.826,-21.186],[55.835,-21.18],[55.835,-21.16],[55.826,-21.144],[55.81,-21.137],[55.8,-21.127],[55.78,-21.122],[55.771,-21.107],[55.763,-21.101],[55.751,-21.084],[55.732,-21.062],[55.732,-21.05],[55.718,-21.032],[55.707,-21.027],[55.7,-21.003],[55.701,-20.979],[55.697,-20.966],[55.683,-20.944],[55.666,-20.926],[55.648,-20.916],[55.622,-20.911],[55.592,-20.896],[55.582,-20.898],[55.557,-20.892],[55.551,-20.895],[55.52,-20.888],[55.503,-20.882],[55.485,-20.886],[55.47,-20.884],[55.451,-20.872],[55.439,-20.877],[55.426,-20.874],[55.395,-20.882],[55.352,-20.911],[55.345,-20.922],[55.325,-20.93],[55.304,-20.929],[55.29,-20.923],[55.284,-20.926],[55.284,-20.944],[55.278,-20.96],[55.282,-20.971],[55.281,-20.991],[55.277,-21.001],[55.263,-21.013],[55.247,-21.02],[55.236,-21.018],[55.217,-21.036],[55.224,-21.055],[55.22,-21.074],[55.231,-21.091],[55.246,-21.102]]],[[[45.27,-12.792],[45.279,-12.805],[45.296,-12.797],[45.293,-12.768],[45.285,-12.759],[45.275,-12.771],[45.27,-12.792]]]]}},{"type":"Feature","properties":{"crous_id":25,"crous_slug":"strasbourg","crous_libelle":"Strasbourg","crous_nom":"Strasbourg","departements":["67","68"],"credit":"croustillant.menu"},"geometry":{"type":"Polygon","coordinates":[[[7.13,47.503],[7.191,47.489],[7.17,47.444],[7.254,47.424],[7.339,47.441],[7.386,47.432],[7.511,47.497],[7.506,47.544],[7.585,47.576],[7.566,47.633],[7.522,47.662],[7.514,47.703],[7.548,47.74],[7.531,47.787],[7.564,47.852],[7.557,47.88],[7.622,47.972],[7.569,48.034],[7.577,48.12],[7.643,48.206],[7.668,48.224],[7.703,48.309],[7.745,48.336],[7.736,48.404],[7.767,48.485],[7.807,48.521],[7.804,48.592],[7.84,48.641],[7.891,48.663],[8.005,48.759],[8.106,48.824],[8.127,48.875],[8.196,48.956],[8.071,48.996],[7.937,49.057],[7.866,49.033],[7.795,49.066],[7.767,49.046],[7.695,49.057],[7.635,49.054],[7.588,48.99],[7.578,48.957],[7.533,48.934],[7.444,48.964],[7.327,48.943],[7.294,48.972],[7.174,49.006],[7.131,49.005],[7.079,49.05],[7.032,48.99],[6.989,48.96],[6.965,48.905],[7.042,48.873],[7.047,48.82],[7.112,48.799],[7.149,48.845],[7.291,48.794],[7.311,48.763],[7.248,48.682],[7.304,48.66],[7.218,48.553],[7.168,48.528],[7.114,48.537],[7.083,48.516],[7.119,48.474],[7.096,48.427],[7.104,48.388],[7.079,48.351],[7.113,48.336],[7.184,48.339],[7.194,48.302],[7.148,48.264],[7.118,48.208],[7.058,48.138],[7.077,48.108],[7.001,48.022],[6.961,48],[6.919,47.944],[6.929,47.91],[6.897,47.891],[6.92,47.85],[6.846,47.823],[6.863,47.785],[6.94,47.772],[7.034,47.725],[7.04,47.686],[7.006,47.602],[7.07,47.601],[7.136,47.537],[7.13,47.503]]]}},{"type":"Feature","properties":{"crous_id":5,"crous_slug":"toulouse-occitanie","crous_libelle":"Toulouse","crous_nom":"Toulouse Occitanie","departements":["09","12","31","32","46","65","81","82"],"credit":"croustillant.menu"},"geometry":{"type":"MultiPolygon","coordinates":[[[[1.786,42.574],[1.86,42.584],[1.907,42.609],[1.972,42.617],[1.997,42.66],[2.028,42.653],[2.176,42.683],[2.056,42.756],[2.008,42.734],[1.949,42.738],[1.894,42.81],[1.876,42.853],[1.946,42.856],[1.987,42.871],[1.981,42.93],[1.985,43.033],[1.943,43.051],[1.949,43.121],[1.88,43.141],[1.783,43.156],[1.713,43.186],[1.724,43.225],[1.692,43.27],[1.724,43.33],[1.804,43.358],[1.816,43.405],[1.859,43.444],[1.915,43.401],[1.956,43.425],[1.988,43.408],[2.053,43.43],[2.075,43.395],[2.109,43.395],[2.221,43.427],[2.245,43.448],[2.311,43.442],[2.402,43.417],[2.429,43.436],[2.497,43.437],[2.582,43.424],[2.655,43.467],[2.655,43.527],[2.616,43.567],[2.615,43.6],[2.657,43.651],[2.723,43.644],[2.755,43.614],[2.816,43.64],[2.907,43.654],[2.919,43.688],[2.985,43.709],[3.021,43.695],[3.055,43.715],[3.068,43.757],[3.05,43.799],[3.065,43.836],[3.124,43.818],[3.207,43.812],[3.249,43.83],[3.234,43.858],[3.275,43.898],[3.319,43.891],[3.357,43.912],[3.377,43.967],[3.439,43.998],[3.443,44.025],[3.39,44.058],[3.352,44.05],[3.323,44.11],[3.357,44.198],[3.212,44.195],[3.224,44.23],[3.161,44.245],[3.154,44.308],[3.12,44.363],[3.14,44.392],[3.135,44.454],[3.068,44.503],[3.084,44.56],[2.982,44.645],[2.955,44.661],[2.925,44.729],[2.938,44.775],[2.893,44.786],[2.851,44.872],[2.777,44.889],[2.741,44.94],[2.7,44.904],[2.603,44.843],[2.6,44.793],[2.563,44.778],[2.555,44.729],[2.5,44.69],[2.483,44.65],[2.355,44.64],[2.323,44.669],[2.169,44.639],[2.179,44.674],[2.146,44.72],[2.172,44.79],[2.091,44.876],[2.063,44.977],[1.986,44.975],[1.952,44.954],[1.914,44.979],[1.824,44.928],[1.775,44.924],[1.751,44.956],[1.648,45.028],[1.54,45.047],[1.448,45.019],[1.409,45.006],[1.442,44.916],[1.44,44.875],[1.36,44.834],[1.364,44.812],[1.302,44.798],[1.323,44.765],[1.299,44.726],[1.225,44.684],[1.149,44.67],[1.154,44.639],[1.095,44.592],[1.103,44.572],[0.982,44.545],[1.016,44.506],[1.028,44.434],[1.054,44.432],[1.064,44.381],[1.049,44.362],[0.952,44.362],[0.92,44.384],[0.871,44.315],[0.951,44.275],[0.905,44.197],[0.854,44.175],[0.89,44.153],[0.867,44.126],[0.819,44.144],[0.757,44.107],[0.739,44.061],[0.708,44.058],[0.663,44.024],[0.601,44.078],[0.555,44.055],[0.46,44.055],[0.442,44.029],[0.314,44.005],[0.304,43.993],[0.214,44.023],[0.167,43.997],[0.085,43.985],[0.056,43.961],[0.069,43.904],[0.031,43.901],[-0.047,43.961],[-0.103,43.927],[-0.176,43.936],[-0.218,43.907],[-0.19,43.881],[-0.194,43.808],[-0.222,43.789],[-0.194,43.737],[-0.251,43.708],[-0.242,43.583],[-0.179,43.596],[-0.097,43.582],[-0.04,43.513],[-0.017,43.441],[0.01,43.422],[-0.004,43.372],[0.03,43.346],[-0.025,43.33],[-0.046,43.301],[-0.017,43.27],[-0.073,43.224],[-0.068,43.177],[-0.118,43.18],[-0.146,43.128],[-0.175,43.11],[-0.19,43.052],[-0.293,42.993],[-0.279,42.939],[-0.325,42.904],[-0.313,42.849],[-0.178,42.785],[-0.155,42.793],[-0.109,42.734],[-0.063,42.696],[-0.011,42.684],[0.111,42.71],[0.176,42.737],[0.253,42.718],[0.295,42.673],[0.358,42.72],[0.436,42.69],[0.53,42.703],[0.668,42.689],[0.674,42.717],[0.651,42.778],[0.671,42.805],[0.659,42.839],[0.708,42.861],[0.779,42.836],[0.858,42.826],[0.926,42.789],[1.073,42.782],[1.133,42.75],[1.166,42.709],[1.229,42.728],[1.253,42.715],[1.357,42.719],[1.414,42.656],[1.438,42.603],[1.468,42.631],[1.549,42.656],[1.6,42.626],[1.681,42.625],[1.738,42.611],[1.726,42.59],[1.786,42.574]]],[[[-0.101,43.251],[-0.08,43.263],[-0.111,43.31],[-0.138,43.28],[-0.101,43.251]]]]}},{"type":"Feature","properties":{"crous_id":6,"crous_slug":"versailles","crous_libelle":"Versailles","crous_nom":"Versailles","departements":["78","91","92","95"],"credit":"croustillant.menu"},"geometry":{"type":"Polygon","coordinates":[[[2.403,48.321],[2.451,48.375],[2.527,48.416],[2.5,48.441],[2.499,48.543],[2.541,48.594],[2.554,48.688],[2.504,48.735],[2.448,48.722],[2.371,48.72],[2.309,48.755],[2.332,48.817],[2.224,48.854],[2.232,48.869],[2.32,48.9],[2.333,48.956],[2.361,48.974],[2.459,48.955],[2.515,48.982],[2.584,49.047],[2.591,49.08],[2.531,49.1],[2.472,49.135],[2.346,49.162],[2.313,49.186],[2.254,49.153],[2.22,49.18],[2.113,49.187],[2.072,49.204],[2.002,49.176],[1.973,49.184],[1.883,49.162],[1.795,49.185],[1.756,49.175],[1.73,49.229],[1.704,49.232],[1.675,49.211],[1.658,49.132],[1.623,49.086],[1.51,49.067],[1.446,49.046],[1.498,48.979],[1.502,48.941],[1.538,48.923],[1.559,48.864],[1.591,48.815],[1.575,48.791],[1.627,48.748],[1.577,48.703],[1.601,48.668],[1.702,48.585],[1.787,48.554],[1.786,48.49],[1.872,48.44],[1.941,48.425],[1.987,48.362],[1.959,48.309],[1.973,48.288],[2.041,48.284],[2.181,48.312],[2.207,48.342],[2.296,48.308],[2.403,48.321]]]}}]}